[
    {
        "type": "Feature",
        "id": "relation/1740854",
        "properties": {
            "@id": "relation/1740854",
            "ele": "301",
            "gnis:feature_id": "1080470",
            "name": "Clarence J. Brown Reservoir",
            "natural": "water",
            "type": "multipolygon",
            "water": "reservoir",
            "@timestamp": "2024-08-19T13:56:57Z",
            "@version": 4,
            "@changeset": 155462415,
            "@user": "Mateusz Konieczny - bot account",
            "@uid": 3199858,
            "@osm3s:version": 0.6,
            "@osm3s:generator": "Overpass API 0.7.62.5 1bd436f1",
            "@osm3s:timestamp_osm_base": "2025-02-16T09:21:01Z",
            "@osm3s:copyright": "The data included in this document is from www.openstreetmap.org. The data is made available under ODbL."
        },
        "geometry": {
            "type": "Polygon",
            "coordinates": [
                [
                    [
                        -83.7062128,
                        39.988166
                    ],
                    [
                        -83.7063683,
                        39.9881607
                    ],
                    [
                        -83.7064434,
                        39.9880374
                    ],
                    [
                        -83.7066312,
                        39.9880263
                    ],
                    [
                        -83.7067116,
                        39.9879634
                    ],
                    [
                        -83.7068887,
                        39.9879605
                    ],
                    [
                        -83.7070174,
                        39.9878536
                    ],
                    [
                        -83.707173,
                        39.9878401
                    ],
                    [
                        -83.7073339,
                        39.9879305
                    ],
                    [
                        -83.7075002,
                        39.9881989
                    ],
                    [
                        -83.707409,
                        39.9884566
                    ],
                    [
                        -83.7081332,
                        39.9888894
                    ],
                    [
                        -83.7082942,
                        39.9891195
                    ],
                    [
                        -83.7085516,
                        39.9891031
                    ],
                    [
                        -83.7086107,
                        39.9887361
                    ],
                    [
                        -83.7087287,
                        39.9885717
                    ],
                    [
                        -83.7090291,
                        39.9885799
                    ],
                    [
                        -83.7094368,
                        39.9888594
                    ],
                    [
                        -83.7098874,
                        39.9890402
                    ],
                    [
                        -83.7098981,
                        39.9891964
                    ],
                    [
                        -83.7101288,
                        39.98921
                    ],
                    [
                        -83.7101771,
                        39.9889909
                    ],
                    [
                        -83.7102951,
                        39.9889005
                    ],
                    [
                        -83.7104882,
                        39.9888758
                    ],
                    [
                        -83.7106652,
                        39.988914
                    ],
                    [
                        -83.7107779,
                        39.9886621
                    ],
                    [
                        -83.7114109,
                        39.9889416
                    ],
                    [
                        -83.7116684,
                        39.9889745
                    ],
                    [
                        -83.711899,
                        39.9891689
                    ],
                    [
                        -83.7116791,
                        39.9892868
                    ],
                    [
                        -83.7121941,
                        39.9892786
                    ],
                    [
                        -83.7122155,
                        39.9887361
                    ],
                    [
                        -83.7122799,
                        39.9885388
                    ],
                    [
                        -83.7129558,
                        39.988136
                    ],
                    [
                        -83.7130202,
                        39.9878154
                    ],
                    [
                        -83.7129129,
                        39.9877332
                    ],
                    [
                        -83.7125642,
                        39.9878947
                    ],
                    [
                        -83.7124623,
                        39.9882757
                    ],
                    [
                        -83.7122048,
                        39.9883744
                    ],
                    [
                        -83.7121726,
                        39.9871742
                    ],
                    [
                        -83.7133903,
                        39.9873769
                    ],
                    [
                        -83.7133796,
                        39.98824
                    ],
                    [
                        -83.7127895,
                        39.9884701
                    ],
                    [
                        -83.712752,
                        39.9887114
                    ],
                    [
                        -83.7129773,
                        39.9886456
                    ],
                    [
                        -83.7132241,
                        39.9887278
                    ],
                    [
                        -83.7133635,
                        39.9886703
                    ],
                    [
                        -83.7134601,
                        39.9885552
                    ],
                    [
                        -83.7136317,
                        39.9885881
                    ],
                    [
                        -83.7138356,
                        39.9884566
                    ],
                    [
                        -83.7139536,
                        39.9881196
                    ],
                    [
                        -83.7141682,
                        39.9883415
                    ],
                    [
                        -83.7146188,
                        39.9883086
                    ],
                    [
                        -83.7146081,
                        39.9880702
                    ],
                    [
                        -83.7147368,
                        39.9879469
                    ],
                    [
                        -83.7153913,
                        39.9886456
                    ],
                    [
                        -83.7158097,
                        39.9888676
                    ],
                    [
                        -83.7157668,
                        39.988621
                    ],
                    [
                        -83.7155951,
                        39.9883744
                    ],
                    [
                        -83.7155951,
                        39.9881031
                    ],
                    [
                        -83.7154235,
                        39.9879387
                    ],
                    [
                        -83.7154986,
                        39.9878318
                    ],
                    [
                        -83.7161316,
                        39.9878647
                    ],
                    [
                        -83.716271,
                        39.9877579
                    ],
                    [
                        -83.7168504,
                        39.9871496
                    ],
                    [
                        -83.7179823,
                        39.9864891
                    ],
                    [
                        -83.7186153,
                        39.9859301
                    ],
                    [
                        -83.7190284,
                        39.9856041
                    ],
                    [
                        -83.7193395,
                        39.9852095
                    ],
                    [
                        -83.7193502,
                        39.9849794
                    ],
                    [
                        -83.7190498,
                        39.9846999
                    ],
                    [
                        -83.7200315,
                        39.9843271
                    ],
                    [
                        -83.7203802,
                        39.984108
                    ],
                    [
                        -83.7205894,
                        39.9841544
                    ],
                    [
                        -83.7214262,
                        39.9840065
                    ],
                    [
                        -83.7221504,
                        39.9838285
                    ],
                    [
                        -83.72369,
                        39.983916
                    ],
                    [
                        -83.7240548,
                        39.9838996
                    ],
                    [
                        -83.7238027,
                        39.9836476
                    ],
                    [
                        -83.7228585,
                        39.9834832
                    ],
                    [
                        -83.722644,
                        39.9835819
                    ],
                    [
                        -83.722644,
                        39.9833681
                    ],
                    [
                        -83.7232341,
                        39.9829078
                    ],
                    [
                        -83.723631,
                        39.9826447
                    ],
                    [
                        -83.7242962,
                        39.9824474
                    ],
                    [
                        -83.7251384,
                        39.9822637
                    ],
                    [
                        -83.7259699,
                        39.9817651
                    ],
                    [
                        -83.7265707,
                        39.9817322
                    ],
                    [
                        -83.7265493,
                        39.9815513
                    ],
                    [
                        -83.7270106,
                        39.9813869
                    ],
                    [
                        -83.7293656,
                        39.9818197
                    ],
                    [
                        -83.7295212,
                        39.9822665
                    ],
                    [
                        -83.7303634,
                        39.9824034
                    ],
                    [
                        -83.7309749,
                        39.9822225
                    ],
                    [
                        -83.7314845,
                        39.9817815
                    ],
                    [
                        -83.7318386,
                        39.9810745
                    ],
                    [
                        -83.7318815,
                        39.9807045
                    ],
                    [
                        -83.732375,
                        39.9803757
                    ],
                    [
                        -83.7333192,
                        39.9798495
                    ],
                    [
                        -83.7338234,
                        39.979718
                    ],
                    [
                        -83.7348105,
                        39.9798002
                    ],
                    [
                        -83.7350411,
                        39.9796
                    ],
                    [
                        -83.7352289,
                        39.9793069
                    ],
                    [
                        -83.7360979,
                        39.9790274
                    ],
                    [
                        -83.7361408,
                        39.9792823
                    ],
                    [
                        -83.7367846,
                        39.9792823
                    ],
                    [
                        -83.7370743,
                        39.9792247
                    ],
                    [
                        -83.7373317,
                        39.9789616
                    ],
                    [
                        -83.7376322,
                        39.9788301
                    ],
                    [
                        -83.7378575,
                        39.9785341
                    ],
                    [
                        -83.7379862,
                        39.9780737
                    ],
                    [
                        -83.7398316,
                        39.9769885
                    ],
                    [
                        -83.7398208,
                        39.9767583
                    ],
                    [
                        -83.7400032,
                        39.9766268
                    ],
                    [
                        -83.7402124,
                        39.9765828
                    ],
                    [
                        -83.7427391,
                        39.9745138
                    ],
                    [
                        -83.7445737,
                        39.9730503
                    ],
                    [
                        -83.7447132,
                        39.9728447
                    ],
                    [
                        -83.7457432,
                        39.9720307
                    ],
                    [
                        -83.7457432,
                        39.9718334
                    ],
                    [
                        -83.7462796,
                        39.9715456
                    ],
                    [
                        -83.7466551,
                        39.9716443
                    ],
                    [
                        -83.7468804,
                        39.9716196
                    ],
                    [
                        -83.7470735,
                        39.9713976
                    ],
                    [
                        -83.7468268,
                        39.970929
                    ],
                    [
                        -83.7466336,
                        39.9708714
                    ],
                    [
                        -83.7471272,
                        39.9699587
                    ],
                    [
                        -83.7473525,
                        39.9697861
                    ],
                    [
                        -83.74761,
                        39.9697614
                    ],
                    [
                        -83.74761,
                        39.9696545
                    ],
                    [
                        -83.7474276,
                        39.9695476
                    ],
                    [
                        -83.7474383,
                        39.969268
                    ],
                    [
                        -83.7483073,
                        39.9691036
                    ],
                    [
                        -83.7486131,
                        39.9684758
                    ],
                    [
                        -83.7486292,
                        39.9682731
                    ],
                    [
                        -83.7484575,
                        39.9679771
                    ],
                    [
                        -83.7485112,
                        39.9677469
                    ],
                    [
                        -83.7488867,
                        39.9672042
                    ],
                    [
                        -83.7491388,
                        39.966527
                    ],
                    [
                        -83.7493266,
                        39.9663161
                    ],
                    [
                        -83.749568,
                        39.9662228
                    ],
                    [
                        -83.7496377,
                        39.9661188
                    ],
                    [
                        -83.7495841,
                        39.965905
                    ],
                    [
                        -83.7492086,
                        39.9657323
                    ],
                    [
                        -83.7490691,
                        39.9656172
                    ],
                    [
                        -83.748774,
                        39.9639861
                    ],
                    [
                        -83.7488545,
                        39.9636272
                    ],
                    [
                        -83.7492837,
                        39.9632736
                    ],
                    [
                        -83.7497665,
                        39.9629611
                    ],
                    [
                        -83.7501634,
                        39.9627802
                    ],
                    [
                        -83.7499489,
                        39.9626898
                    ],
                    [
                        -83.749348,
                        39.9627227
                    ],
                    [
                        -83.7488545,
                        39.9629282
                    ],
                    [
                        -83.7486829,
                        39.9629282
                    ],
                    [
                        -83.7484039,
                        39.9628789
                    ],
                    [
                        -83.7479962,
                        39.9624431
                    ],
                    [
                        -83.7478567,
                        39.9621141
                    ],
                    [
                        -83.7474598,
                        39.9616865
                    ],
                    [
                        -83.7473203,
                        39.9612425
                    ],
                    [
                        -83.7469019,
                        39.9609711
                    ],
                    [
                        -83.7469126,
                        39.9605846
                    ],
                    [
                        -83.7465478,
                        39.9603625
                    ],
                    [
                        -83.7465049,
                        39.9601323
                    ],
                    [
                        -83.746462,
                        39.9598856
                    ],
                    [
                        -83.7466873,
                        39.9597869
                    ],
                    [
                        -83.7476153,
                        39.9596278
                    ],
                    [
                        -83.7488277,
                        39.9591755
                    ],
                    [
                        -83.7496163,
                        39.9587589
                    ],
                    [
                        -83.750024,
                        39.9584382
                    ],
                    [
                        -83.7505497,
                        39.9579941
                    ],
                    [
                        -83.7510968,
                        39.9573856
                    ],
                    [
                        -83.7515582,
                        39.9569168
                    ],
                    [
                        -83.7507321,
                        39.9565138
                    ],
                    [
                        -83.7500132,
                        39.9573362
                    ],
                    [
                        -83.7492944,
                        39.9578954
                    ],
                    [
                        -83.7487097,
                        39.958312
                    ],
                    [
                        -83.7479372,
                        39.9586163
                    ],
                    [
                        -83.7470735,
                        39.9588987
                    ],
                    [
                        -83.7462957,
                        39.9589288
                    ],
                    [
                        -83.7460865,
                        39.9586931
                    ],
                    [
                        -83.7458504,
                        39.9582079
                    ],
                    [
                        -83.7458075,
                        39.9574185
                    ],
                    [
                        -83.7455393,
                        39.9568592
                    ],
                    [
                        -83.7455071,
                        39.9564151
                    ],
                    [
                        -83.7454642,
                        39.9560862
                    ],
                    [
                        -83.7452067,
                        39.9558723
                    ],
                    [
                        -83.744917,
                        39.9557654
                    ],
                    [
                        -83.7449063,
                        39.9556338
                    ],
                    [
                        -83.7450029,
                        39.9554365
                    ],
                    [
                        -83.7451638,
                        39.9553131
                    ],
                    [
                        -83.7457968,
                        39.9551486
                    ],
                    [
                        -83.746344,
                        39.9551651
                    ],
                    [
                        -83.7467029,
                        39.9487638
                    ],
                    [
                        -83.7467087,
                        39.9486595
                    ],
                    [
                        -83.746698,
                        39.9484292
                    ],
                    [
                        -83.7465907,
                        39.9481577
                    ],
                    [
                        -83.7464405,
                        39.9479686
                    ],
                    [
                        -83.7462152,
                        39.9478205
                    ],
                    [
                        -83.7458719,
                        39.9476725
                    ],
                    [
                        -83.7455071,
                        39.9475902
                    ],
                    [
                        -83.743769,
                        39.9475244
                    ],
                    [
                        -83.7431951,
                        39.9475297
                    ],
                    [
                        -83.7428893,
                        39.9476478
                    ],
                    [
                        -83.7419666,
                        39.948059
                    ],
                    [
                        -83.7411137,
                        39.9484098
                    ],
                    [
                        -83.7413229,
                        39.9475573
                    ],
                    [
                        -83.7409903,
                        39.9472365
                    ],
                    [
                        -83.7394882,
                        39.947072
                    ],
                    [
                        -83.7385977,
                        39.9470802
                    ],
                    [
                        -83.7379647,
                        39.9471872
                    ],
                    [
                        -83.7375517,
                        39.9473981
                    ],
                    [
                        -83.7373103,
                        39.9476725
                    ],
                    [
                        -83.7362696,
                        39.9487006
                    ],
                    [
                        -83.7332602,
                        39.951708
                    ],
                    [
                        -83.732257,
                        39.9524181
                    ],
                    [
                        -83.7316508,
                        39.9530403
                    ],
                    [
                        -83.7312056,
                        39.9532324
                    ],
                    [
                        -83.7304707,
                        39.9533035
                    ],
                    [
                        -83.7298859,
                        39.9531337
                    ],
                    [
                        -83.728974,
                        39.9526978
                    ],
                    [
                        -83.728754,
                        39.9527689
                    ],
                    [
                        -83.728577,
                        39.9526731
                    ],
                    [
                        -83.7285019,
                        39.9525086
                    ],
                    [
                        -83.7267638,
                        39.9524675
                    ],
                    [
                        -83.7257124,
                        39.9527225
                    ],
                    [
                        -83.7243713,
                        39.9532241
                    ],
                    [
                        -83.7229658,
                        39.9540959
                    ],
                    [
                        -83.7224079,
                        39.9545154
                    ],
                    [
                        -83.7221236,
                        39.9549648
                    ],
                    [
                        -83.7229605,
                        39.9555898
                    ],
                    [
                        -83.7230409,
                        39.9558148
                    ],
                    [
                        -83.7229712,
                        39.9561244
                    ],
                    [
                        -83.7226011,
                        39.9565303
                    ],
                    [
                        -83.722703,
                        39.9568317
                    ],
                    [
                        -83.7226279,
                        39.9569304
                    ],
                    [
                        -83.7225581,
                        39.9568675
                    ],
                    [
                        -83.7224079,
                        39.9565467
                    ],
                    [
                        -83.7227405,
                        39.9560944
                    ],
                    [
                        -83.7227191,
                        39.955971
                    ],
                    [
                        -83.7225796,
                        39.9558723
                    ],
                    [
                        -83.7222899,
                        39.9558394
                    ],
                    [
                        -83.7221612,
                        39.9557408
                    ],
                    [
                        -83.7217427,
                        39.9560697
                    ],
                    [
                        -83.7213931,
                        39.95598
                    ],
                    [
                        -83.7213548,
                        39.9560874
                    ],
                    [
                        -83.7205518,
                        39.9558888
                    ],
                    [
                        -83.7202729,
                        39.9557654
                    ],
                    [
                        -83.7201012,
                        39.9557983
                    ],
                    [
                        -83.719951,
                        39.955897
                    ],
                    [
                        -83.7195272,
                        39.956585
                    ],
                    [
                        -83.7201549,
                        39.957073
                    ],
                    [
                        -83.7214102,
                        39.9575912
                    ],
                    [
                        -83.7214316,
                        39.9574596
                    ],
                    [
                        -83.7218608,
                        39.9568839
                    ],
                    [
                        -83.7219895,
                        39.9568592
                    ],
                    [
                        -83.7219734,
                        39.9569386
                    ],
                    [
                        -83.7215443,
                        39.9574896
                    ],
                    [
                        -83.7214692,
                        39.9577856
                    ],
                    [
                        -83.7213082,
                        39.9578926
                    ],
                    [
                        -83.7210776,
                        39.9578872
                    ],
                    [
                        -83.7199618,
                        39.9573691
                    ],
                    [
                        -83.7196935,
                        39.958356
                    ],
                    [
                        -83.7197794,
                        39.9587754
                    ],
                    [
                        -83.7201012,
                        39.958981
                    ],
                    [
                        -83.7205358,
                        39.9590192
                    ],
                    [
                        -83.7204875,
                        39.9598445
                    ],
                    [
                        -83.7205518,
                        39.9609217
                    ],
                    [
                        -83.721099,
                        39.961629
                    ],
                    [
                        -83.7215604,
                        39.9618099
                    ],
                    [
                        -83.7218232,
                        39.9625553
                    ],
                    [
                        -83.7233789,
                        39.9645042
                    ],
                    [
                        -83.7244035,
                        39.9650498
                    ],
                    [
                        -83.7250419,
                        39.9655403
                    ],
                    [
                        -83.7257446,
                        39.9658556
                    ],
                    [
                        -83.7265815,
                        39.9662586
                    ],
                    [
                        -83.7271125,
                        39.9667902
                    ],
                    [
                        -83.7280245,
                        39.9672342
                    ],
                    [
                        -83.7288774,
                        39.9669411
                    ],
                    [
                        -83.7295577,
                        39.9670658
                    ],
                    [
                        -83.7306262,
                        39.9672617
                    ],
                    [
                        -83.731447,
                        39.9682045
                    ],
                    [
                        -83.7317313,
                        39.9697614
                    ],
                    [
                        -83.7326647,
                        39.9708056
                    ],
                    [
                        -83.7327076,
                        39.9709619
                    ],
                    [
                        -83.7326218,
                        39.9712907
                    ],
                    [
                        -83.7321175,
                        39.9711263
                    ],
                    [
                        -83.7309964,
                        39.9712879
                    ],
                    [
                        -83.7305189,
                        39.9712907
                    ],
                    [
                        -83.7299503,
                        39.9711016
                    ],
                    [
                        -83.7294461,
                        39.9711016
                    ],
                    [
                        -83.7287165,
                        39.9712743
                    ],
                    [
                        -83.7280835,
                        39.9713072
                    ],
                    [
                        -83.7271823,
                        39.9711099
                    ],
                    [
                        -83.7268175,
                        39.9709619
                    ],
                    [
                        -83.7260236,
                        39.9710276
                    ],
                    [
                        -83.7253154,
                        39.9709947
                    ],
                    [
                        -83.7246449,
                        39.9711563
                    ],
                    [
                        -83.7210615,
                        39.9727514
                    ],
                    [
                        -83.7185295,
                        39.9735325
                    ],
                    [
                        -83.7173064,
                        39.973886
                    ],
                    [
                        -83.7167968,
                        39.9739711
                    ],
                    [
                        -83.7156488,
                        39.9739711
                    ],
                    [
                        -83.7139375,
                        39.9741163
                    ],
                    [
                        -83.7117542,
                        39.9754675
                    ],
                    [
                        -83.7116362,
                        39.9757717
                    ],
                    [
                        -83.7114162,
                        39.9760237
                    ],
                    [
                        -83.7106491,
                        39.9765281
                    ],
                    [
                        -83.7104882,
                        39.9772352
                    ],
                    [
                        -83.7101771,
                        39.9773256
                    ],
                    [
                        -83.7105204,
                        39.9784437
                    ],
                    [
                        -83.710692,
                        39.9785095
                    ],
                    [
                        -83.7107993,
                        39.9787068
                    ],
                    [
                        -83.7110139,
                        39.9797591
                    ],
                    [
                        -83.7113787,
                        39.9805977
                    ],
                    [
                        -83.71184,
                        39.9806634
                    ],
                    [
                        -83.7121565,
                        39.9809401
                    ],
                    [
                        -83.7126447,
                        39.9818555
                    ],
                    [
                        -83.7126608,
                        39.9820663
                    ],
                    [
                        -83.7120653,
                        39.9818966
                    ],
                    [
                        -83.712119,
                        39.9816746
                    ],
                    [
                        -83.711722,
                        39.981206
                    ],
                    [
                        -83.7116576,
                        39.9813622
                    ],
                    [
                        -83.7114109,
                        39.9814198
                    ],
                    [
                        -83.7109817,
                        39.9814527
                    ],
                    [
                        -83.7106599,
                        39.9815924
                    ],
                    [
                        -83.7103058,
                        39.9818884
                    ],
                    [
                        -83.7101395,
                        39.9823705
                    ],
                    [
                        -83.7099947,
                        39.9833763
                    ],
                    [
                        -83.7097265,
                        39.9839271
                    ],
                    [
                        -83.7094368,
                        39.9839847
                    ],
                    [
                        -83.7081815,
                        39.9844286
                    ],
                    [
                        -83.7070013,
                        39.9852178
                    ],
                    [
                        -83.7065561,
                        39.9860534
                    ],
                    [
                        -83.7064595,
                        39.9864808
                    ],
                    [
                        -83.7065185,
                        39.9871331
                    ],
                    [
                        -83.706422,
                        39.9876428
                    ],
                    [
                        -83.7061162,
                        39.9879358
                    ],
                    [
                        -83.7062128,
                        39.988166
                    ]
                ]
            ]
        }
    }
]