[
    {
        "type": "Feature",
        "id": "way/241475351",
        "properties": {
            "@id": "way/241475351",
            "ele": "304",
            "gnis:feature_id": "488975",
            "name": "Carr Creek Lake",
            "natural": "water",
            "old_name": "Carr Fork Lake",
            "water": "reservoir",
            "wikidata": "Q5045962",
            "wikipedia": "en:Carr Creek Lake",
            "@timestamp": "2024-08-14T11:32:58Z",
            "@version": 6,
            "@changeset": 155235291,
            "@user": "Mateusz Konieczny - bot account",
            "@uid": 3199858,
            "@osm3s:version": 0.6,
            "@osm3s:generator": "Overpass API 0.7.62.5 1bd436f1",
            "@osm3s:timestamp_osm_base": "2025-02-16T09:23:58Z",
            "@osm3s:copyright": "The data included in this document is from www.openstreetmap.org. The data is made available under ODbL."
        },
        "geometry": {
            "type": "Polygon",
            "coordinates": [
                [
                    [
                        -83.0341919,
                        37.2295777
                    ],
                    [
                        -83.0322827,
                        37.2295259
                    ],
                    [
                        -83.0323188,
                        37.2291804
                    ],
                    [
                        -83.0321525,
                        37.2290594
                    ],
                    [
                        -83.0322031,
                        37.2289097
                    ],
                    [
                        -83.0318704,
                        37.2284836
                    ],
                    [
                        -83.0309954,
                        37.2280172
                    ],
                    [
                        -83.0295562,
                        37.2274183
                    ],
                    [
                        -83.0293682,
                        37.2275277
                    ],
                    [
                        -83.0291946,
                        37.2277177
                    ],
                    [
                        -83.0288908,
                        37.2278559
                    ],
                    [
                        -83.0286883,
                        37.2277926
                    ],
                    [
                        -83.028616,
                        37.227355
                    ],
                    [
                        -83.0283195,
                        37.2274413
                    ],
                    [
                        -83.0277482,
                        37.2278617
                    ],
                    [
                        -83.0271335,
                        37.2281669
                    ],
                    [
                        -83.0269382,
                        37.2285585
                    ],
                    [
                        -83.0260993,
                        37.2287658
                    ],
                    [
                        -83.0254701,
                        37.2292552
                    ],
                    [
                        -83.0248121,
                        37.2307654
                    ],
                    [
                        -83.024178,
                        37.2325569
                    ],
                    [
                        -83.0236462,
                        37.2329559
                    ],
                    [
                        -83.0231757,
                        37.2331676
                    ],
                    [
                        -83.0218256,
                        37.2336155
                    ],
                    [
                        -83.0218256,
                        37.2341366
                    ],
                    [
                        -83.0220302,
                        37.2343483
                    ],
                    [
                        -83.0216927,
                        37.2346252
                    ],
                    [
                        -83.0213654,
                        37.2352441
                    ],
                    [
                        -83.0210177,
                        37.2361153
                    ],
                    [
                        -83.0208336,
                        37.2368645
                    ],
                    [
                        -83.0204245,
                        37.2376624
                    ],
                    [
                        -83.0201483,
                        37.2379556
                    ],
                    [
                        -83.0203426,
                        37.237581
                    ],
                    [
                        -83.0206086,
                        37.236726
                    ],
                    [
                        -83.0207108,
                        37.2359362
                    ],
                    [
                        -83.020629,
                        37.2353988
                    ],
                    [
                        -83.0209358,
                        37.2349428
                    ],
                    [
                        -83.0210279,
                        37.2337702
                    ],
                    [
                        -83.0207722,
                        37.2335748
                    ],
                    [
                        -83.0191665,
                        37.2336318
                    ],
                    [
                        -83.0174482,
                        37.2335015
                    ],
                    [
                        -83.0153413,
                        37.2330536
                    ],
                    [
                        -83.0149527,
                        37.2342588
                    ],
                    [
                        -83.0148402,
                        37.2344216
                    ],
                    [
                        -83.0147072,
                        37.2336318
                    ],
                    [
                        -83.014697,
                        37.233021
                    ],
                    [
                        -83.0146049,
                        37.2327442
                    ],
                    [
                        -83.0124162,
                        37.2322067
                    ],
                    [
                        -83.0120992,
                        37.2322393
                    ],
                    [
                        -83.0111889,
                        37.232622
                    ],
                    [
                        -83.0099514,
                        37.2329722
                    ],
                    [
                        -83.009215,
                        37.2329803
                    ],
                    [
                        -83.0079672,
                        37.232907
                    ],
                    [
                        -83.0076911,
                        37.2331676
                    ],
                    [
                        -83.0075683,
                        37.2332165
                    ],
                    [
                        -83.0075479,
                        37.2327197
                    ],
                    [
                        -83.0066376,
                        37.2323533
                    ],
                    [
                        -83.0063103,
                        37.2324429
                    ],
                    [
                        -83.0062285,
                        37.2323859
                    ],
                    [
                        -83.0060956,
                        37.2320683
                    ],
                    [
                        -83.0051342,
                        37.2316367
                    ],
                    [
                        -83.0049091,
                        37.2318321
                    ],
                    [
                        -83.0046535,
                        37.2322393
                    ],
                    [
                        -83.0046228,
                        37.2326627
                    ],
                    [
                        -83.004766,
                        37.2341773
                    ],
                    [
                        -83.0045716,
                        37.2348858
                    ],
                    [
                        -83.0040807,
                        37.2356186
                    ],
                    [
                        -83.0034568,
                        37.2361072
                    ],
                    [
                        -83.0028432,
                        37.2363433
                    ],
                    [
                        -83.0016056,
                        37.236384
                    ],
                    [
                        -83.001428,
                        37.2365207
                    ],
                    [
                        -83.0014497,
                        37.2366876
                    ],
                    [
                        -83.0015654,
                        37.2367798
                    ],
                    [
                        -83.0012255,
                        37.2369237
                    ],
                    [
                        -83.0010447,
                        37.2371482
                    ],
                    [
                        -83.0007916,
                        37.237321
                    ],
                    [
                        -83.0005457,
                        37.2373728
                    ],
                    [
                        -83.0001263,
                        37.2376319
                    ],
                    [
                        -82.9985352,
                        37.239008
                    ],
                    [
                        -82.9980868,
                        37.2397507
                    ],
                    [
                        -82.9981736,
                        37.2402976
                    ],
                    [
                        -82.9985714,
                        37.2407985
                    ],
                    [
                        -82.9987138,
                        37.2419543
                    ],
                    [
                        -82.999348,
                        37.2422393
                    ],
                    [
                        -82.9994502,
                        37.2423777
                    ],
                    [
                        -82.9988161,
                        37.2422963
                    ],
                    [
                        -82.99854,
                        37.2423451
                    ],
                    [
                        -82.9983456,
                        37.2428174
                    ],
                    [
                        -82.9973945,
                        37.2438188
                    ],
                    [
                        -82.9968217,
                        37.2457566
                    ],
                    [
                        -82.9963922,
                        37.2464649
                    ],
                    [
                        -82.9960853,
                        37.2471406
                    ],
                    [
                        -82.9961978,
                        37.2475966
                    ],
                    [
                        -82.9965047,
                        37.24837
                    ],
                    [
                        -82.9967604,
                        37.2486468
                    ],
                    [
                        -82.9976911,
                        37.2488748
                    ],
                    [
                        -82.9984479,
                        37.2495831
                    ],
                    [
                        -82.9983763,
                        37.2497622
                    ],
                    [
                        -82.9979365,
                        37.2498273
                    ],
                    [
                        -82.9971695,
                        37.249119
                    ],
                    [
                        -82.996566,
                        37.2490213
                    ],
                    [
                        -82.996249,
                        37.2488585
                    ],
                    [
                        -82.9954001,
                        37.2476291
                    ],
                    [
                        -82.9952978,
                        37.2465789
                    ],
                    [
                        -82.9960853,
                        37.245382
                    ],
                    [
                        -82.9964229,
                        37.244747
                    ],
                    [
                        -82.9963615,
                        37.2440631
                    ],
                    [
                        -82.9967092,
                        37.2430453
                    ],
                    [
                        -82.9973331,
                        37.242109
                    ],
                    [
                        -82.9973433,
                        37.2417182
                    ],
                    [
                        -82.9969751,
                        37.2407086
                    ],
                    [
                        -82.9968524,
                        37.2396745
                    ],
                    [
                        -82.9969138,
                        37.2391045
                    ],
                    [
                        -82.9974968,
                        37.2384776
                    ],
                    [
                        -82.9982127,
                        37.2375982
                    ],
                    [
                        -82.9984541,
                        37.2374578
                    ],
                    [
                        -82.9984252,
                        37.2372563
                    ],
                    [
                        -82.9986349,
                        37.237239
                    ],
                    [
                        -82.9987,
                        37.2372966
                    ],
                    [
                        -82.999416,
                        37.236669
                    ],
                    [
                        -82.9999159,
                        37.2353254
                    ],
                    [
                        -83.0000182,
                        37.2348857
                    ],
                    [
                        -82.9997113,
                        37.2345844
                    ],
                    [
                        -82.9995988,
                        37.2342913
                    ],
                    [
                        -82.9981741,
                        37.2323866
                    ],
                    [
                        -82.9978486,
                        37.231425
                    ],
                    [
                        -82.9975377,
                        37.2308319
                    ],
                    [
                        -82.9973713,
                        37.2303943
                    ],
                    [
                        -82.9969519,
                        37.2299797
                    ],
                    [
                        -82.9965975,
                        37.2298588
                    ],
                    [
                        -82.9958381,
                        37.2299682
                    ],
                    [
                        -82.9951077,
                        37.2302388
                    ],
                    [
                        -82.9944279,
                        37.2307455
                    ],
                    [
                        -82.993764,
                        37.2310146
                    ],
                    [
                        -82.9926492,
                        37.2318534
                    ],
                    [
                        -82.9924037,
                        37.2322035
                    ],
                    [
                        -82.99089,
                        37.2332214
                    ],
                    [
                        -82.990082,
                        37.2338484
                    ],
                    [
                        -82.9892025,
                        37.2342067
                    ],
                    [
                        -82.9884354,
                        37.2344103
                    ],
                    [
                        -82.9880058,
                        37.2343777
                    ],
                    [
                        -82.987249,
                        37.2344917
                    ],
                    [
                        -82.986349,
                        37.2343614
                    ],
                    [
                        -82.9857251,
                        37.2339299
                    ],
                    [
                        -82.98505,
                        37.2332784
                    ],
                    [
                        -82.9846716,
                        37.231886
                    ],
                    [
                        -82.9847739,
                        37.2312264
                    ],
                    [
                        -82.9852035,
                        37.2301433
                    ],
                    [
                        -82.9851012,
                        37.2299397
                    ],
                    [
                        -82.9851932,
                        37.2297768
                    ],
                    [
                        -82.9854796,
                        37.229557
                    ],
                    [
                        -82.9855307,
                        37.2290358
                    ],
                    [
                        -82.9852751,
                        37.2287263
                    ],
                    [
                        -82.9849171,
                        37.2286449
                    ],
                    [
                        -82.9845182,
                        37.2288241
                    ],
                    [
                        -82.9845182,
                        37.2284169
                    ],
                    [
                        -82.9844466,
                        37.2282052
                    ],
                    [
                        -82.9839659,
                        37.2279608
                    ],
                    [
                        -82.9834954,
                        37.227855
                    ],
                    [
                        -82.9833932,
                        37.2276921
                    ],
                    [
                        -82.9828307,
                        37.2273256
                    ],
                    [
                        -82.9816852,
                        37.2267393
                    ],
                    [
                        -82.9807442,
                        37.2261692
                    ],
                    [
                        -82.9804169,
                        37.2255014
                    ],
                    [
                        -82.9797112,
                        37.2245323
                    ],
                    [
                        -82.979701,
                        37.2242147
                    ],
                    [
                        -82.9798646,
                        37.2237586
                    ],
                    [
                        -82.979701,
                        37.2234655
                    ],
                    [
                        -82.9791487,
                        37.223441
                    ],
                    [
                        -82.9787294,
                        37.2233514
                    ],
                    [
                        -82.9785453,
                        37.2234166
                    ],
                    [
                        -82.9780748,
                        37.2240274
                    ],
                    [
                        -82.9777271,
                        37.2245893
                    ],
                    [
                        -82.9776692,
                        37.2247626
                    ],
                    [
                        -82.9778226,
                        37.2249581
                    ],
                    [
                        -82.9777459,
                        37.225068
                    ],
                    [
                        -82.9774698,
                        37.2250354
                    ],
                    [
                        -82.9766315,
                        37.2258792
                    ],
                    [
                        -82.9766514,
                        37.2259138
                    ],
                    [
                        -82.9764416,
                        37.2260088
                    ],
                    [
                        -82.9760692,
                        37.2263774
                    ],
                    [
                        -82.9752158,
                        37.2269532
                    ],
                    [
                        -82.9749084,
                        37.2272123
                    ],
                    [
                        -82.9747391,
                        37.2274828
                    ],
                    [
                        -82.9741817,
                        37.228
                    ],
                    [
                        -82.9738902,
                        37.2284112
                    ],
                    [
                        -82.9727856,
                        37.2309397
                    ],
                    [
                        -82.9728367,
                        37.2310375
                    ],
                    [
                        -82.9728009,
                        37.2312248
                    ],
                    [
                        -82.972443,
                        37.2316075
                    ],
                    [
                        -82.9715992,
                        37.2323485
                    ],
                    [
                        -82.9712208,
                        37.2323078
                    ],
                    [
                        -82.9708986,
                        37.2323607
                    ],
                    [
                        -82.9688157,
                        37.2334654
                    ],
                    [
                        -82.9687323,
                        37.2338722
                    ],
                    [
                        -82.9686176,
                        37.2338805
                    ],
                    [
                        -82.9683569,
                        37.2335484
                    ],
                    [
                        -82.9676373,
                        37.2336895
                    ],
                    [
                        -82.9665945,
                        37.2337975
                    ],
                    [
                        -82.9657811,
                        37.2336729
                    ],
                    [
                        -82.9647382,
                        37.2332246
                    ],
                    [
                        -82.9626839,
                        37.2316221
                    ],
                    [
                        -82.961276,
                        37.2312485
                    ],
                    [
                        -82.9597118,
                        37.2314062
                    ],
                    [
                        -82.9594823,
                        37.2313896
                    ],
                    [
                        -82.9580537,
                        37.2319542
                    ],
                    [
                        -82.9571464,
                        37.2324607
                    ],
                    [
                        -82.9563226,
                        37.2331
                    ],
                    [
                        -82.9559367,
                        37.2338639
                    ],
                    [
                        -82.9557907,
                        37.2356905
                    ],
                    [
                        -82.95553,
                        37.2366453
                    ],
                    [
                        -82.9551441,
                        37.2369691
                    ],
                    [
                        -82.9547479,
                        37.2370936
                    ],
                    [
                        -82.954654,
                        37.2372514
                    ],
                    [
                        -82.9536946,
                        37.2371932
                    ],
                    [
                        -82.9533713,
                        37.2370023
                    ],
                    [
                        -82.9528812,
                        37.2371185
                    ],
                    [
                        -82.9524849,
                        37.2368612
                    ],
                    [
                        -82.9519635,
                        37.2367947
                    ],
                    [
                        -82.9512127,
                        37.2366287
                    ],
                    [
                        -82.9509832,
                        37.2366619
                    ],
                    [
                        -82.9507434,
                        37.2366038
                    ],
                    [
                        -82.9505452,
                        37.2364958
                    ],
                    [
                        -82.9512231,
                        37.2359147
                    ],
                    [
                        -82.9514316,
                        37.2356158
                    ],
                    [
                        -82.9513691,
                        37.2352422
                    ],
                    [
                        -82.9510145,
                        37.2350927
                    ],
                    [
                        -82.9506675,
                        37.2347169
                    ],
                    [
                        -82.9502103,
                        37.2344292
                    ],
                    [
                        -82.9499522,
                        37.234347
                    ],
                    [
                        -82.94972,
                        37.234394
                    ],
                    [
                        -82.9495909,
                        37.2345437
                    ],
                    [
                        -82.9495135,
                        37.2349576
                    ],
                    [
                        -82.9493808,
                        37.2351631
                    ],
                    [
                        -82.9491153,
                        37.2350956
                    ],
                    [
                        -82.948931,
                        37.2348813
                    ],
                    [
                        -82.9488867,
                        37.2346171
                    ],
                    [
                        -82.9492923,
                        37.2341239
                    ],
                    [
                        -82.9496757,
                        37.2339918
                    ],
                    [
                        -82.9505459,
                        37.2342091
                    ],
                    [
                        -82.9513054,
                        37.2345848
                    ],
                    [
                        -82.9516335,
                        37.2350956
                    ],
                    [
                        -82.9518879,
                        37.2353627
                    ],
                    [
                        -82.9525184,
                        37.2356592
                    ],
                    [
                        -82.9527544,
                        37.2358324
                    ],
                    [
                        -82.9531562,
                        37.2358353
                    ],
                    [
                        -82.9535692,
                        37.2357766
                    ],
                    [
                        -82.9540006,
                        37.2355329
                    ],
                    [
                        -82.9544651,
                        37.2351719
                    ],
                    [
                        -82.9546273,
                        37.2349547
                    ],
                    [
                        -82.9545315,
                        37.2341156
                    ],
                    [
                        -82.9545684,
                        37.2338514
                    ],
                    [
                        -82.9547306,
                        37.2335168
                    ],
                    [
                        -82.9549887,
                        37.2324365
                    ],
                    [
                        -82.9551288,
                        37.232325
                    ],
                    [
                        -82.9555491,
                        37.2317614
                    ],
                    [
                        -82.956257,
                        37.2313093
                    ],
                    [
                        -82.9573483,
                        37.2308807
                    ],
                    [
                        -82.9606814,
                        37.2299178
                    ],
                    [
                        -82.9614925,
                        37.229771
                    ],
                    [
                        -82.961817,
                        37.2299706
                    ],
                    [
                        -82.9632401,
                        37.230229
                    ],
                    [
                        -82.9636826,
                        37.2304286
                    ],
                    [
                        -82.9643315,
                        37.23091
                    ],
                    [
                        -82.9649435,
                        37.2315852
                    ],
                    [
                        -82.9656957,
                        37.2322545
                    ],
                    [
                        -82.9664331,
                        37.2325246
                    ],
                    [
                        -82.9673253,
                        37.2326772
                    ],
                    [
                        -82.9680037,
                        37.2326538
                    ],
                    [
                        -82.9688665,
                        37.2322428
                    ],
                    [
                        -82.9710197,
                        37.2305402
                    ],
                    [
                        -82.9716096,
                        37.2299589
                    ],
                    [
                        -82.9718308,
                        37.2297299
                    ],
                    [
                        -82.9718603,
                        37.2294775
                    ],
                    [
                        -82.9722954,
                        37.2289256
                    ],
                    [
                        -82.9726125,
                        37.2287788
                    ],
                    [
                        -82.972841,
                        37.2285557
                    ],
                    [
                        -82.9745076,
                        37.2263304
                    ],
                    [
                        -82.9748763,
                        37.2262599
                    ],
                    [
                        -82.9752966,
                        37.2258841
                    ],
                    [
                        -82.9754219,
                        37.2256082
                    ],
                    [
                        -82.9759455,
                        37.2252383
                    ],
                    [
                        -82.9761297,
                        37.2248208
                    ],
                    [
                        -82.9761408,
                        37.2246153
                    ],
                    [
                        -82.9762367,
                        37.2244832
                    ],
                    [
                        -82.9762846,
                        37.2244685
                    ],
                    [
                        -82.9768118,
                        37.2246829
                    ],
                    [
                        -82.9771178,
                        37.2244979
                    ],
                    [
                        -82.9771437,
                        37.2242572
                    ],
                    [
                        -82.9765648,
                        37.2239195
                    ],
                    [
                        -82.9765427,
                        37.2237845
                    ],
                    [
                        -82.9766422,
                        37.2234087
                    ],
                    [
                        -82.9766109,
                        37.2232293
                    ],
                    [
                        -82.9763919,
                        37.2230051
                    ],
                    [
                        -82.9760582,
                        37.2228431
                    ],
                    [
                        -82.9757193,
                        37.2227975
                    ],
                    [
                        -82.975151,
                        37.2226148
                    ],
                    [
                        -82.9746139,
                        37.2225027
                    ],
                    [
                        -82.9740821,
                        37.2224778
                    ],
                    [
                        -82.9725334,
                        37.2215311
                    ],
                    [
                        -82.9724801,
                        37.2211555
                    ],
                    [
                        -82.9722221,
                        37.2208325
                    ],
                    [
                        -82.9717427,
                        37.220674
                    ],
                    [
                        -82.9711012,
                        37.2206622
                    ],
                    [
                        -82.9708358,
                        37.2208443
                    ],
                    [
                        -82.9697075,
                        37.220721
                    ],
                    [
                        -82.9688005,
                        37.2207621
                    ],
                    [
                        -82.9680779,
                        37.2205859
                    ],
                    [
                        -82.9664482,
                        37.2203217
                    ],
                    [
                        -82.9665294,
                        37.2202629
                    ],
                    [
                        -82.9672225,
                        37.220169
                    ],
                    [
                        -82.9676281,
                        37.2200104
                    ],
                    [
                        -82.968041,
                        37.2200398
                    ],
                    [
                        -82.9684761,
                        37.2202629
                    ],
                    [
                        -82.9688448,
                        37.2203745
                    ],
                    [
                        -82.9694273,
                        37.2202806
                    ],
                    [
                        -82.9702975,
                        37.2197873
                    ],
                    [
                        -82.9719492,
                        37.2200515
                    ],
                    [
                        -82.9735862,
                        37.2206094
                    ],
                    [
                        -82.9764105,
                        37.2213786
                    ],
                    [
                        -82.9769119,
                        37.2213727
                    ],
                    [
                        -82.9772142,
                        37.2207621
                    ],
                    [
                        -82.977664,
                        37.2200809
                    ],
                    [
                        -82.977782,
                        37.2197168
                    ],
                    [
                        -82.9777249,
                        37.2173616
                    ],
                    [
                        -82.9778336,
                        37.2173797
                    ],
                    [
                        -82.9781729,
                        37.2174091
                    ],
                    [
                        -82.9783537,
                        37.2174127
                    ],
                    [
                        -82.9781692,
                        37.2177761
                    ],
                    [
                        -82.9781655,
                        37.2179816
                    ],
                    [
                        -82.9780586,
                        37.2180697
                    ],
                    [
                        -82.9784752,
                        37.2183721
                    ],
                    [
                        -82.978861,
                        37.2198752
                    ],
                    [
                        -82.9802689,
                        37.2213783
                    ],
                    [
                        -82.981124,
                        37.221943
                    ],
                    [
                        -82.981416,
                        37.2228896
                    ],
                    [
                        -82.9815933,
                        37.2240273
                    ],
                    [
                        -82.9819374,
                        37.2250403
                    ],
                    [
                        -82.9828342,
                        37.2259122
                    ],
                    [
                        -82.9836059,
                        37.2263938
                    ],
                    [
                        -82.9851806,
                        37.2271412
                    ],
                    [
                        -82.9864216,
                        37.2278137
                    ],
                    [
                        -82.9868804,
                        37.2288766
                    ],
                    [
                        -82.9867762,
                        37.229491
                    ],
                    [
                        -82.986067,
                        37.2311101
                    ],
                    [
                        -82.9857229,
                        37.2324469
                    ],
                    [
                        -82.9860879,
                        37.2327126
                    ],
                    [
                        -82.9866823,
                        37.2328122
                    ],
                    [
                        -82.9868074,
                        37.2327209
                    ],
                    [
                        -82.9868283,
                        37.2325382
                    ],
                    [
                        -82.9871516,
                        37.2325798
                    ],
                    [
                        -82.9872767,
                        37.2328953
                    ],
                    [
                        -82.9877564,
                        37.2330198
                    ],
                    [
                        -82.9886116,
                        37.2328621
                    ],
                    [
                        -82.9896023,
                        37.2321148
                    ],
                    [
                        -82.9914064,
                        37.230969
                    ],
                    [
                        -82.9915628,
                        37.230695
                    ],
                    [
                        -82.9922406,
                        37.2303379
                    ],
                    [
                        -82.9932031,
                        37.2296678
                    ],
                    [
                        -82.9937037,
                        37.2289786
                    ],
                    [
                        -82.9938809,
                        37.2283642
                    ],
                    [
                        -82.9943189,
                        37.2279573
                    ],
                    [
                        -82.9942981,
                        37.2277331
                    ],
                    [
                        -82.993224,
                        37.2273512
                    ],
                    [
                        -82.9929841,
                        37.2274176
                    ],
                    [
                        -82.9928381,
                        37.2271602
                    ],
                    [
                        -82.9914616,
                        37.2258233
                    ],
                    [
                        -82.990961,
                        37.2252587
                    ],
                    [
                        -82.990669,
                        37.2250428
                    ],
                    [
                        -82.9903666,
                        37.224503
                    ],
                    [
                        -82.9899599,
                        37.2240131
                    ],
                    [
                        -82.989282,
                        37.2227343
                    ],
                    [
                        -82.9892716,
                        37.2225599
                    ],
                    [
                        -82.9897826,
                        37.222917
                    ],
                    [
                        -82.9901789,
                        37.2233322
                    ],
                    [
                        -82.9906794,
                        37.2241044
                    ],
                    [
                        -82.9922124,
                        37.2255742
                    ],
                    [
                        -82.9933178,
                        37.226471
                    ],
                    [
                        -82.9943711,
                        37.2268613
                    ],
                    [
                        -82.9953305,
                        37.2268779
                    ],
                    [
                        -82.996196,
                        37.2267533
                    ],
                    [
                        -82.9970303,
                        37.2265208
                    ],
                    [
                        -82.9976039,
                        37.2264212
                    ],
                    [
                        -82.9979271,
                        37.2264295
                    ],
                    [
                        -82.99897,
                        37.2261222
                    ],
                    [
                        -82.999408,
                        37.2261389
                    ],
                    [
                        -82.9994288,
                        37.22628
                    ],
                    [
                        -82.9990951,
                        37.2267367
                    ],
                    [
                        -82.9990607,
                        37.2272248
                    ],
                    [
                        -82.9989908,
                        37.2282147
                    ],
                    [
                        -82.9992255,
                        37.2283933
                    ],
                    [
                        -82.9992828,
                        37.228551
                    ],
                    [
                        -82.9994184,
                        37.2286631
                    ],
                    [
                        -82.9994288,
                        37.2289413
                    ],
                    [
                        -82.9993923,
                        37.2290285
                    ],
                    [
                        -82.9991108,
                        37.22907
                    ],
                    [
                        -82.9984903,
                        37.2292693
                    ],
                    [
                        -82.9982661,
                        37.2294685
                    ],
                    [
                        -82.9981879,
                        37.2297384
                    ],
                    [
                        -82.9982943,
                        37.230046
                    ],
                    [
                        -82.9983286,
                        37.2301452
                    ],
                    [
                        -82.9987145,
                        37.2303985
                    ],
                    [
                        -82.9994358,
                        37.2304233
                    ],
                    [
                        -82.9995114,
                        37.2306744
                    ],
                    [
                        -82.9996183,
                        37.2308031
                    ],
                    [
                        -82.9998034,
                        37.2307969
                    ],
                    [
                        -83.0002154,
                        37.231993
                    ],
                    [
                        -83.000385,
                        37.2322631
                    ],
                    [
                        -83.0004587,
                        37.2326506
                    ],
                    [
                        -83.0003186,
                        37.2329852
                    ],
                    [
                        -83.0003924,
                        37.2334608
                    ],
                    [
                        -83.0011593,
                        37.2342358
                    ],
                    [
                        -83.0016754,
                        37.2344412
                    ],
                    [
                        -83.0030913,
                        37.2347348
                    ],
                    [
                        -83.0032535,
                        37.2345528
                    ],
                    [
                        -83.0033493,
                        37.2337485
                    ],
                    [
                        -83.0033125,
                        37.2331144
                    ],
                    [
                        -83.0030691,
                        37.2329852
                    ],
                    [
                        -83.0032314,
                        37.2324334
                    ],
                    [
                        -83.0033198,
                        37.2310713
                    ],
                    [
                        -83.0033788,
                        37.2309715
                    ],
                    [
                        -83.0036443,
                        37.230901
                    ],
                    [
                        -83.004249,
                        37.2302904
                    ],
                    [
                        -83.004493,
                        37.2302482
                    ],
                    [
                        -83.0053108,
                        37.2301671
                    ],
                    [
                        -83.0062989,
                        37.230355
                    ],
                    [
                        -83.0071838,
                        37.2307307
                    ],
                    [
                        -83.0077221,
                        37.2310948
                    ],
                    [
                        -83.0084079,
                        37.2314588
                    ],
                    [
                        -83.008607,
                        37.2315057
                    ],
                    [
                        -83.0088208,
                        37.231359
                    ],
                    [
                        -83.0090273,
                        37.2314764
                    ],
                    [
                        -83.0089536,
                        37.2317054
                    ],
                    [
                        -83.0090789,
                        37.2317934
                    ],
                    [
                        -83.009691,
                        37.2317288
                    ],
                    [
                        -83.0107897,
                        37.2311887
                    ],
                    [
                        -83.010915,
                        37.2312122
                    ],
                    [
                        -83.0112469,
                        37.2310419
                    ],
                    [
                        -83.0120359,
                        37.2308951
                    ],
                    [
                        -83.0149117,
                        37.2313061
                    ],
                    [
                        -83.0153984,
                        37.2313237
                    ],
                    [
                        -83.0163939,
                        37.2317347
                    ],
                    [
                        -83.0169101,
                        37.2316584
                    ],
                    [
                        -83.0174336,
                        37.231811
                    ],
                    [
                        -83.0177212,
                        37.2317465
                    ],
                    [
                        -83.0183775,
                        37.2320224
                    ],
                    [
                        -83.0185987,
                        37.2319637
                    ],
                    [
                        -83.0190854,
                        37.2320518
                    ],
                    [
                        -83.0194246,
                        37.2320165
                    ],
                    [
                        -83.0196163,
                        37.2318286
                    ],
                    [
                        -83.0200735,
                        37.2322572
                    ],
                    [
                        -83.0205307,
                        37.232087
                    ],
                    [
                        -83.0209215,
                        37.2320576
                    ],
                    [
                        -83.0214229,
                        37.2317993
                    ],
                    [
                        -83.0213271,
                        37.2313648
                    ],
                    [
                        -83.0219317,
                        37.2315468
                    ],
                    [
                        -83.022706,
                        37.2312474
                    ],
                    [
                        -83.0232886,
                        37.2308775
                    ],
                    [
                        -83.023436,
                        37.2299675
                    ],
                    [
                        -83.0241808,
                        37.2285408
                    ],
                    [
                        -83.0247339,
                        37.2278362
                    ],
                    [
                        -83.0245053,
                        37.2274898
                    ],
                    [
                        -83.0249846,
                        37.2274956
                    ],
                    [
                        -83.0256261,
                        37.2272021
                    ],
                    [
                        -83.0270935,
                        37.2262098
                    ],
                    [
                        -83.027971,
                        37.2259162
                    ],
                    [
                        -83.0287895,
                        37.2257224
                    ],
                    [
                        -83.0295786,
                        37.2256168
                    ],
                    [
                        -83.0306994,
                        37.2259514
                    ],
                    [
                        -83.0320267,
                        37.2268087
                    ],
                    [
                        -83.0331549,
                        37.2274076
                    ],
                    [
                        -83.0335089,
                        37.2277833
                    ],
                    [
                        -83.033767,
                        37.227801
                    ],
                    [
                        -83.0342831,
                        37.2288343
                    ],
                    [
                        -83.0341919,
                        37.2295777
                    ]
                ]
            ]
        }
    }
]