[
    {
        "type": "Feature",
        "id": "relation/1758583",
        "properties": {
            "@id": "relation/1758583",
            "ele": "241",
            "gnis:feature_id": "436636",
            "name": "J. Edward Roush Lake",
            "natural": "water",
            "type": "multipolygon",
            "water": "reservoir",
            "wikidata": "Q6105565",
            "wikipedia": "en:J. Edward Roush Lake",
            "@timestamp": "2024-05-24T10:11:48Z",
            "@version": 6,
            "@changeset": 151761135,
            "@user": "Mateusz Konieczny - bot account",
            "@uid": 3199858,
            "@osm3s:version": 0.6,
            "@osm3s:generator": "Overpass API 0.7.62.5 1bd436f1",
            "@osm3s:timestamp_osm_base": "2025-02-16T09:36:29Z",
            "@osm3s:copyright": "The data included in this document is from www.openstreetmap.org. The data is made available under ODbL."
        },
        "geometry": {
            "type": "Polygon",
            "coordinates": [
                [
                    [
                        -85.3702277,
                        40.8217153
                    ],
                    [
                        -85.3695239,
                        40.8212606
                    ],
                    [
                        -85.3689918,
                        40.8208969
                    ],
                    [
                        -85.3684768,
                        40.8206891
                    ],
                    [
                        -85.3679103,
                        40.8205916
                    ],
                    [
                        -85.367052,
                        40.8204163
                    ],
                    [
                        -85.3662452,
                        40.820007
                    ],
                    [
                        -85.3651637,
                        40.8194225
                    ],
                    [
                        -85.3644771,
                        40.8190003
                    ],
                    [
                        -85.3640479,
                        40.8187534
                    ],
                    [
                        -85.3636617,
                        40.8180909
                    ],
                    [
                        -85.3633441,
                        40.8175712
                    ],
                    [
                        -85.3627862,
                        40.8169866
                    ],
                    [
                        -85.3621167,
                        40.8166424
                    ],
                    [
                        -85.36137,
                        40.8165319
                    ],
                    [
                        -85.3604259,
                        40.8165319
                    ],
                    [
                        -85.3605546,
                        40.8167268
                    ],
                    [
                        -85.3616704,
                        40.8167918
                    ],
                    [
                        -85.362769,
                        40.817214
                    ],
                    [
                        -85.3632325,
                        40.817961
                    ],
                    [
                        -85.3634557,
                        40.8183962
                    ],
                    [
                        -85.3640908,
                        40.8190977
                    ],
                    [
                        -85.3657903,
                        40.8201694
                    ],
                    [
                        -85.3671807,
                        40.8211113
                    ],
                    [
                        -85.3684939,
                        40.8217738
                    ],
                    [
                        -85.3699788,
                        40.8223973
                    ],
                    [
                        -85.3706655,
                        40.8227221
                    ],
                    [
                        -85.3712663,
                        40.8232871
                    ],
                    [
                        -85.3720817,
                        40.8239366
                    ],
                    [
                        -85.3724421,
                        40.8242289
                    ],
                    [
                        -85.3730086,
                        40.8245537
                    ],
                    [
                        -85.373927,
                        40.8250408
                    ],
                    [
                        -85.3749827,
                        40.825411
                    ],
                    [
                        -85.3757544,
                        40.8258749
                    ],
                    [
                        -85.3759217,
                        40.8264225
                    ],
                    [
                        -85.3761329,
                        40.8269048
                    ],
                    [
                        -85.3764075,
                        40.8273984
                    ],
                    [
                        -85.3764504,
                        40.827866
                    ],
                    [
                        -85.3763217,
                        40.8279439
                    ],
                    [
                        -85.3760642,
                        40.827801
                    ],
                    [
                        -85.3759097,
                        40.8274438
                    ],
                    [
                        -85.3758754,
                        40.8272815
                    ],
                    [
                        -85.3756522,
                        40.8273789
                    ],
                    [
                        -85.375738,
                        40.8277231
                    ],
                    [
                        -85.3758496,
                        40.8281388
                    ],
                    [
                        -85.375738,
                        40.8286583
                    ],
                    [
                        -85.3759784,
                        40.8290675
                    ],
                    [
                        -85.3766221,
                        40.8295676
                    ],
                    [
                        -85.3773688,
                        40.830217
                    ],
                    [
                        -85.3780383,
                        40.8304118
                    ],
                    [
                        -85.3787078,
                        40.8304768
                    ],
                    [
                        -85.3796519,
                        40.830756
                    ],
                    [
                        -85.3805274,
                        40.8309833
                    ],
                    [
                        -85.381214,
                        40.8308534
                    ],
                    [
                        -85.3822612,
                        40.8303209
                    ],
                    [
                        -85.3830852,
                        40.8300417
                    ],
                    [
                        -85.3838748,
                        40.8300092
                    ],
                    [
                        -85.3845614,
                        40.830217
                    ],
                    [
                        -85.3857717,
                        40.8303534
                    ],
                    [
                        -85.3868617,
                        40.8303794
                    ],
                    [
                        -85.3880633,
                        40.8301585
                    ],
                    [
                        -85.3887757,
                        40.830269
                    ],
                    [
                        -85.3893937,
                        40.8308989
                    ],
                    [
                        -85.3909387,
                        40.8312236
                    ],
                    [
                        -85.3920373,
                        40.8311457
                    ],
                    [
                        -85.3925008,
                        40.8306586
                    ],
                    [
                        -85.3932389,
                        40.8301391
                    ],
                    [
                        -85.3940972,
                        40.8298988
                    ],
                    [
                        -85.3949298,
                        40.829587
                    ],
                    [
                        -85.3959598,
                        40.8294117
                    ],
                    [
                        -85.3973159,
                        40.8295221
                    ],
                    [
                        -85.3982171,
                        40.8293922
                    ],
                    [
                        -85.3988608,
                        40.829048
                    ],
                    [
                        -85.3997191,
                        40.8289571
                    ],
                    [
                        -85.4011353,
                        40.8291519
                    ],
                    [
                        -85.4024657,
                        40.8296195
                    ],
                    [
                        -85.4035129,
                        40.830269
                    ],
                    [
                        -85.404457,
                        40.8307106
                    ],
                    [
                        -85.4057101,
                        40.8311652
                    ],
                    [
                        -85.4065169,
                        40.8316652
                    ],
                    [
                        -85.4070834,
                        40.8320224
                    ],
                    [
                        -85.4078902,
                        40.8323991
                    ],
                    [
                        -85.4087485,
                        40.8326069
                    ],
                    [
                        -85.4095038,
                        40.8327368
                    ],
                    [
                        -85.4098901,
                        40.8329446
                    ],
                    [
                        -85.4099502,
                        40.8331589
                    ],
                    [
                        -85.409418,
                        40.8331589
                    ],
                    [
                        -85.409006,
                        40.8331589
                    ],
                    [
                        -85.4085769,
                        40.8333732
                    ],
                    [
                        -85.4087485,
                        40.8337239
                    ],
                    [
                        -85.4095468,
                        40.8341005
                    ],
                    [
                        -85.4102935,
                        40.8340356
                    ],
                    [
                        -85.4106626,
                        40.8338083
                    ],
                    [
                        -85.4103192,
                        40.8334511
                    ],
                    [
                        -85.4102935,
                        40.8331784
                    ],
                    [
                        -85.4106196,
                        40.8329965
                    ],
                    [
                        -85.4112033,
                        40.8330939
                    ],
                    [
                        -85.4113749,
                        40.8333342
                    ],
                    [
                        -85.4112033,
                        40.8336135
                    ],
                    [
                        -85.4112891,
                        40.8339187
                    ],
                    [
                        -85.4115809,
                        40.8336135
                    ],
                    [
                        -85.4119758,
                        40.8332888
                    ],
                    [
                        -85.4121217,
                        40.8331134
                    ],
                    [
                        -85.4128169,
                        40.8332108
                    ],
                    [
                        -85.4129542,
                        40.8336135
                    ],
                    [
                        -85.4131259,
                        40.83412
                    ],
                    [
                        -85.4139327,
                        40.8345876
                    ],
                    [
                        -85.4151601,
                        40.8350746
                    ],
                    [
                        -85.4158038,
                        40.8352045
                    ],
                    [
                        -85.4162759,
                        40.8357695
                    ],
                    [
                        -85.4166621,
                        40.8363734
                    ],
                    [
                        -85.4172629,
                        40.8367825
                    ],
                    [
                        -85.4184817,
                        40.8373799
                    ],
                    [
                        -85.419855,
                        40.8379643
                    ],
                    [
                        -85.4220866,
                        40.8389254
                    ],
                    [
                        -85.4238891,
                        40.8397955
                    ],
                    [
                        -85.4253997,
                        40.8406786
                    ],
                    [
                        -85.4268073,
                        40.8414383
                    ],
                    [
                        -85.4279059,
                        40.8418734
                    ],
                    [
                        -85.4291762,
                        40.8420552
                    ],
                    [
                        -85.4305495,
                        40.8420552
                    ],
                    [
                        -85.4315795,
                        40.8418929
                    ],
                    [
                        -85.4323005,
                        40.8416656
                    ],
                    [
                        -85.4332704,
                        40.8415357
                    ],
                    [
                        -85.4349011,
                        40.8414708
                    ],
                    [
                        -85.4358882,
                        40.8413409
                    ],
                    [
                        -85.4365577,
                        40.8410293
                    ],
                    [
                        -85.4371757,
                        40.8407241
                    ],
                    [
                        -85.4377593,
                        40.840302
                    ],
                    [
                        -85.4380511,
                        40.8398799
                    ],
                    [
                        -85.4382056,
                        40.8394449
                    ],
                    [
                        -85.4387206,
                        40.8392955
                    ],
                    [
                        -85.4397506,
                        40.8393929
                    ],
                    [
                        -85.4407634,
                        40.8395747
                    ],
                    [
                        -85.4420251,
                        40.8397501
                    ],
                    [
                        -85.4423684,
                        40.8398475
                    ],
                    [
                        -85.4429091,
                        40.8397825
                    ],
                    [
                        -85.4430551,
                        40.8401397
                    ],
                    [
                        -85.4433125,
                        40.840354
                    ],
                    [
                        -85.4436988,
                        40.8402501
                    ],
                    [
                        -85.4444283,
                        40.8405747
                    ],
                    [
                        -85.4452266,
                        40.8409384
                    ],
                    [
                        -85.4476642,
                        40.8417825
                    ],
                    [
                        -85.4484023,
                        40.8424448
                    ],
                    [
                        -85.448162,
                        40.8427695
                    ],
                    [
                        -85.4480075,
                        40.8431915
                    ],
                    [
                        -85.4474925,
                        40.8434707
                    ],
                    [
                        -85.4473037,
                        40.8440031
                    ],
                    [
                        -85.447441,
                        40.8447823
                    ],
                    [
                        -85.4482564,
                        40.8453796
                    ],
                    [
                        -85.4484881,
                        40.8458212
                    ],
                    [
                        -85.448471,
                        40.8461458
                    ],
                    [
                        -85.448059,
                        40.8463925
                    ],
                    [
                        -85.4479732,
                        40.8466522
                    ],
                    [
                        -85.4477672,
                        40.8471197
                    ],
                    [
                        -85.4478272,
                        40.8476262
                    ],
                    [
                        -85.4476985,
                        40.8478988
                    ],
                    [
                        -85.4475097,
                        40.8478988
                    ],
                    [
                        -85.4472693,
                        40.8475872
                    ],
                    [
                        -85.4469432,
                        40.8473924
                    ],
                    [
                        -85.446514,
                        40.8473924
                    ],
                    [
                        -85.4460677,
                        40.8473924
                    ],
                    [
                        -85.4457673,
                        40.8474314
                    ],
                    [
                        -85.4455956,
                        40.8476067
                    ],
                    [
                        -85.4453639,
                        40.847782
                    ],
                    [
                        -85.4457673,
                        40.8476911
                    ],
                    [
                        -85.4462823,
                        40.8476067
                    ],
                    [
                        -85.4466685,
                        40.847717
                    ],
                    [
                        -85.4469947,
                        40.8479508
                    ],
                    [
                        -85.4471148,
                        40.8482559
                    ],
                    [
                        -85.4472007,
                        40.8485156
                    ],
                    [
                        -85.4476127,
                        40.848665
                    ],
                    [
                        -85.4479732,
                        40.8489052
                    ],
                    [
                        -85.4484023,
                        40.8488208
                    ],
                    [
                        -85.4487285,
                        40.848665
                    ],
                    [
                        -85.4487971,
                        40.8486
                    ],
                    [
                        -85.4484881,
                        40.8484183
                    ],
                    [
                        -85.4481706,
                        40.8482365
                    ],
                    [
                        -85.4484881,
                        40.8480287
                    ],
                    [
                        -85.4485997,
                        40.847782
                    ],
                    [
                        -85.4484281,
                        40.8474768
                    ],
                    [
                        -85.4485997,
                        40.8471067
                    ],
                    [
                        -85.4490289,
                        40.8467626
                    ],
                    [
                        -85.4494838,
                        40.8464704
                    ],
                    [
                        -85.4498614,
                        40.846003
                    ],
                    [
                        -85.449973,
                        40.8455939
                    ],
                    [
                        -85.4497584,
                        40.8453147
                    ],
                    [
                        -85.4494151,
                        40.8452043
                    ],
                    [
                        -85.4492434,
                        40.8449446
                    ],
                    [
                        -85.4490718,
                        40.8447823
                    ],
                    [
                        -85.4487456,
                        40.8446849
                    ],
                    [
                        -85.4485568,
                        40.8446395
                    ],
                    [
                        -85.4487113,
                        40.8445356
                    ],
                    [
                        -85.4491405,
                        40.8442953
                    ],
                    [
                        -85.4492263,
                        40.8440551
                    ],
                    [
                        -85.4493722,
                        40.8437434
                    ],
                    [
                        -85.4495439,
                        40.8434707
                    ],
                    [
                        -85.4498013,
                        40.8432564
                    ],
                    [
                        -85.4502563,
                        40.8433668
                    ],
                    [
                        -85.4512176,
                        40.84412
                    ],
                    [
                        -85.4516639,
                        40.8444576
                    ],
                    [
                        -85.4517755,
                        40.84462
                    ],
                    [
                        -85.4522046,
                        40.8447693
                    ],
                    [
                        -85.4521214,
                        40.8450327
                    ],
                    [
                        -85.4521765,
                        40.845149
                    ],
                    [
                        -85.4522915,
                        40.845197
                    ],
                    [
                        -85.4524058,
                        40.8452393
                    ],
                    [
                        -85.4524407,
                        40.8453093
                    ],
                    [
                        -85.45256,
                        40.845405
                    ],
                    [
                        -85.4527089,
                        40.8458518
                    ],
                    [
                        -85.4528135,
                        40.8460672
                    ],
                    [
                        -85.4528645,
                        40.8461656
                    ],
                    [
                        -85.4528869,
                        40.8462757
                    ],
                    [
                        -85.4527304,
                        40.8464273
                    ],
                    [
                        -85.4524878,
                        40.8465224
                    ],
                    [
                        -85.4519729,
                        40.8470548
                    ],
                    [
                        -85.4521789,
                        40.8473664
                    ],
                    [
                        -85.4524621,
                        40.8476521
                    ],
                    [
                        -85.4524621,
                        40.8478469
                    ],
                    [
                        -85.452402,
                        40.8480612
                    ],
                    [
                        -85.4527196,
                        40.8478015
                    ],
                    [
                        -85.4530887,
                        40.8476521
                    ],
                    [
                        -85.4532346,
                        40.8476391
                    ],
                    [
                        -85.4528054,
                        40.8473664
                    ],
                    [
                        -85.4526595,
                        40.8471327
                    ],
                    [
                        -85.4530887,
                        40.8471846
                    ],
                    [
                        -85.4535178,
                        40.8473275
                    ],
                    [
                        -85.4537496,
                        40.8475223
                    ],
                    [
                        -85.45405,
                        40.8479962
                    ],
                    [
                        -85.4546937,
                        40.8486
                    ],
                    [
                        -85.4557837,
                        40.8491
                    ],
                    [
                        -85.4577836,
                        40.8493792
                    ],
                    [
                        -85.4583844,
                        40.8494051
                    ],
                    [
                        -85.4594058,
                        40.8499115
                    ],
                    [
                        -85.4601611,
                        40.850379
                    ],
                    [
                        -85.4609508,
                        40.8506776
                    ],
                    [
                        -85.4611396,
                        40.8508075
                    ],
                    [
                        -85.4614486,
                        40.8510477
                    ],
                    [
                        -85.4613799,
                        40.8513269
                    ],
                    [
                        -85.4615087,
                        40.8517424
                    ],
                    [
                        -85.4611911,
                        40.8518463
                    ],
                    [
                        -85.4609508,
                        40.852054
                    ],
                    [
                        -85.4609078,
                        40.8523137
                    ],
                    [
                        -85.4614657,
                        40.8520865
                    ],
                    [
                        -85.4618262,
                        40.8518592
                    ],
                    [
                        -85.4618091,
                        40.8516515
                    ],
                    [
                        -85.4618262,
                        40.8513399
                    ],
                    [
                        -85.4617404,
                        40.8510282
                    ],
                    [
                        -85.4615945,
                        40.8507036
                    ],
                    [
                        -85.4619979,
                        40.8505738
                    ],
                    [
                        -85.4623069,
                        40.8506906
                    ],
                    [
                        -85.4627532,
                        40.8508075
                    ],
                    [
                        -85.4629678,
                        40.8506776
                    ],
                    [
                        -85.4630107,
                        40.8502232
                    ],
                    [
                        -85.4631652,
                        40.8501582
                    ],
                    [
                        -85.463354,
                        40.8502491
                    ],
                    [
                        -85.4632853,
                        40.8505478
                    ],
                    [
                        -85.4635686,
                        40.8507555
                    ],
                    [
                        -85.4639548,
                        40.8507426
                    ],
                    [
                        -85.4642552,
                        40.8506257
                    ],
                    [
                        -85.4645385,
                        40.8505738
                    ],
                    [
                        -85.4648818,
                        40.8505478
                    ],
                    [
                        -85.4645986,
                        40.8504179
                    ],
                    [
                        -85.4641265,
                        40.8504634
                    ],
                    [
                        -85.4639548,
                        40.8503011
                    ],
                    [
                        -85.4640407,
                        40.8499894
                    ],
                    [
                        -85.4642982,
                        40.8498141
                    ],
                    [
                        -85.4648818,
                        40.849535
                    ],
                    [
                        -85.4655856,
                        40.8492298
                    ],
                    [
                        -85.4662894,
                        40.8488208
                    ],
                    [
                        -85.4668559,
                        40.8483209
                    ],
                    [
                        -85.4671391,
                        40.8478469
                    ],
                    [
                        -85.4673366,
                        40.8474444
                    ],
                    [
                        -85.467594,
                        40.8472366
                    ],
                    [
                        -85.4678258,
                        40.8471522
                    ],
                    [
                        -85.4678859,
                        40.8466652
                    ],
                    [
                        -85.468109,
                        40.8463276
                    ],
                    [
                        -85.4683665,
                        40.8462432
                    ],
                    [
                        -85.4685124,
                        40.8462757
                    ],
                    [
                        -85.4684867,
                        40.8457562
                    ],
                    [
                        -85.4682549,
                        40.8456913
                    ],
                    [
                        -85.4680575,
                        40.845529
                    ],
                    [
                        -85.4678859,
                        40.8452693
                    ],
                    [
                        -85.467946,
                        40.8444901
                    ],
                    [
                        -85.4674996,
                        40.8444057
                    ],
                    [
                        -85.4667701,
                        40.8445745
                    ],
                    [
                        -85.4665126,
                        40.8447044
                    ],
                    [
                        -85.4659976,
                        40.8443927
                    ],
                    [
                        -85.4657144,
                        40.8444447
                    ],
                    [
                        -85.4660405,
                        40.8448472
                    ],
                    [
                        -85.4658689,
                        40.8453147
                    ],
                    [
                        -85.4652852,
                        40.8455485
                    ],
                    [
                        -85.4645127,
                        40.845529
                    ],
                    [
                        -85.4638776,
                        40.8453667
                    ],
                    [
                        -85.4626931,
                        40.8452043
                    ],
                    [
                        -85.4603929,
                        40.8452238
                    ],
                    [
                        -85.4589166,
                        40.8451849
                    ],
                    [
                        -85.457672,
                        40.8449641
                    ],
                    [
                        -85.4572858,
                        40.8447304
                    ],
                    [
                        -85.4565991,
                        40.8445356
                    ],
                    [
                        -85.4562129,
                        40.8441849
                    ],
                    [
                        -85.4562558,
                        40.8438863
                    ],
                    [
                        -85.4559812,
                        40.8438603
                    ],
                    [
                        -85.4555778,
                        40.8433863
                    ],
                    [
                        -85.4549254,
                        40.8428668
                    ],
                    [
                        -85.4541787,
                        40.8424253
                    ],
                    [
                        -85.4536895,
                        40.8420747
                    ],
                    [
                        -85.4538611,
                        40.8416202
                    ],
                    [
                        -85.4543075,
                        40.8412435
                    ],
                    [
                        -85.4549254,
                        40.8413864
                    ],
                    [
                        -85.4557494,
                        40.8410358
                    ],
                    [
                        -85.4563502,
                        40.8408864
                    ],
                    [
                        -85.4566936,
                        40.8408669
                    ],
                    [
                        -85.4572944,
                        40.8406462
                    ],
                    [
                        -85.4573115,
                        40.8403669
                    ],
                    [
                        -85.457097,
                        40.8402046
                    ],
                    [
                        -85.4565219,
                        40.8400747
                    ],
                    [
                        -85.4560241,
                        40.8400228
                    ],
                    [
                        -85.4556121,
                        40.8400098
                    ],
                    [
                        -85.4551486,
                        40.8401397
                    ],
                    [
                        -85.4552945,
                        40.8399319
                    ],
                    [
                        -85.455552,
                        40.8396981
                    ],
                    [
                        -85.4557666,
                        40.8392955
                    ],
                    [
                        -85.4560241,
                        40.8385682
                    ],
                    [
                        -85.4559382,
                        40.8380293
                    ],
                    [
                        -85.4557666,
                        40.8376591
                    ],
                    [
                        -85.4549941,
                        40.8371396
                    ],
                    [
                        -85.4540671,
                        40.8366331
                    ],
                    [
                        -85.4527368,
                        40.8363409
                    ],
                    [
                        -85.4510631,
                        40.8361136
                    ],
                    [
                        -85.4503249,
                        40.8360162
                    ],
                    [
                        -85.4499215,
                        40.8358993
                    ],
                    [
                        -85.4498614,
                        40.835724
                    ],
                    [
                        -85.4502048,
                        40.8356266
                    ],
                    [
                        -85.4503077,
                        40.8354448
                    ],
                    [
                        -85.4503077,
                        40.8353668
                    ],
                    [
                        -85.4500503,
                        40.8354837
                    ],
                    [
                        -85.4498357,
                        40.8355487
                    ],
                    [
                        -85.4496211,
                        40.8356591
                    ],
                    [
                        -85.4495353,
                        40.8359188
                    ],
                    [
                        -85.4490031,
                        40.8359643
                    ],
                    [
                        -85.4485053,
                        40.8360162
                    ],
                    [
                        -85.4481448,
                        40.8359188
                    ],
                    [
                        -85.4478873,
                        40.835724
                    ],
                    [
                        -85.4479903,
                        40.8355097
                    ],
                    [
                        -85.4480762,
                        40.8353019
                    ],
                    [
                        -85.4480762,
                        40.8350941
                    ],
                    [
                        -85.4480332,
                        40.8348149
                    ],
                    [
                        -85.4479045,
                        40.8351201
                    ],
                    [
                        -85.4478187,
                        40.8353668
                    ],
                    [
                        -85.4476642,
                        40.8355941
                    ],
                    [
                        -85.4473895,
                        40.8356396
                    ],
                    [
                        -85.4468316,
                        40.8356591
                    ],
                    [
                        -85.4466857,
                        40.8356591
                    ],
                    [
                        -85.446205,
                        40.8355941
                    ],
                    [
                        -85.4458274,
                        40.8354188
                    ],
                    [
                        -85.44563,
                        40.8350746
                    ],
                    [
                        -85.4454841,
                        40.8346655
                    ],
                    [
                        -85.4454154,
                        40.8343148
                    ],
                    [
                        -85.4452266,
                        40.8341979
                    ],
                    [
                        -85.4452609,
                        40.8345096
                    ],
                    [
                        -85.4453124,
                        40.8348149
                    ],
                    [
                        -85.4454326,
                        40.8352694
                    ],
                    [
                        -85.4457416,
                        40.8356785
                    ],
                    [
                        -85.4462565,
                        40.8358539
                    ],
                    [
                        -85.4472007,
                        40.8360682
                    ],
                    [
                        -85.4475612,
                        40.8361591
                    ],
                    [
                        -85.4473466,
                        40.8364059
                    ],
                    [
                        -85.4468316,
                        40.8364383
                    ],
                    [
                        -85.4460591,
                        40.8365682
                    ],
                    [
                        -85.4451579,
                        40.836828
                    ],
                    [
                        -85.4446,
                        40.8371526
                    ],
                    [
                        -85.4438533,
                        40.8373669
                    ],
                    [
                        -85.4429692,
                        40.837315
                    ],
                    [
                        -85.4422225,
                        40.8372825
                    ],
                    [
                        -85.4415359,
                        40.8370422
                    ],
                    [
                        -85.4411067,
                        40.8369773
                    ],
                    [
                        -85.4407376,
                        40.8369124
                    ],
                    [
                        -85.4403085,
                        40.8368604
                    ],
                    [
                        -85.4402226,
                        40.8365877
                    ],
                    [
                        -85.4401025,
                        40.836224
                    ],
                    [
                        -85.4401025,
                        40.8358993
                    ],
                    [
                        -85.4403085,
                        40.8355292
                    ],
                    [
                        -85.440051,
                        40.8351396
                    ],
                    [
                        -85.4399652,
                        40.8355617
                    ],
                    [
                        -85.4397763,
                        40.836276
                    ],
                    [
                        -85.4397763,
                        40.8366137
                    ],
                    [
                        -85.4396047,
                        40.8369578
                    ],
                    [
                        -85.4391068,
                        40.8370228
                    ],
                    [
                        -85.4385919,
                        40.8368734
                    ],
                    [
                        -85.437991,
                        40.8365227
                    ],
                    [
                        -85.4374417,
                        40.8361461
                    ],
                    [
                        -85.4374589,
                        40.8357435
                    ],
                    [
                        -85.4377593,
                        40.8353344
                    ],
                    [
                        -85.4378451,
                        40.8348473
                    ],
                    [
                        -85.4375276,
                        40.8344447
                    ],
                    [
                        -85.437416,
                        40.8340031
                    ],
                    [
                        -85.4372443,
                        40.8336654
                    ],
                    [
                        -85.4371156,
                        40.8334057
                    ],
                    [
                        -85.436901,
                        40.8336135
                    ],
                    [
                        -85.4368409,
                        40.8339901
                    ],
                    [
                        -85.4364976,
                        40.834133
                    ],
                    [
                        -85.4363002,
                        40.8344707
                    ],
                    [
                        -85.4360684,
                        40.8347694
                    ],
                    [
                        -85.4357423,
                        40.8347045
                    ],
                    [
                        -85.4347123,
                        40.8344902
                    ],
                    [
                        -85.4336909,
                        40.8345746
                    ],
                    [
                        -85.4328069,
                        40.8349642
                    ],
                    [
                        -85.4319228,
                        40.8353798
                    ],
                    [
                        -85.4313907,
                        40.8356915
                    ],
                    [
                        -85.4303607,
                        40.835724
                    ],
                    [
                        -85.4299144,
                        40.8357045
                    ],
                    [
                        -85.4296569,
                        40.8360032
                    ],
                    [
                        -85.4290561,
                        40.8359383
                    ],
                    [
                        -85.4284467,
                        40.8358409
                    ],
                    [
                        -85.4269618,
                        40.8358409
                    ],
                    [
                        -85.4261893,
                        40.8358409
                    ],
                    [
                        -85.42564,
                        40.8360357
                    ],
                    [
                        -85.4250392,
                        40.8360812
                    ],
                    [
                        -85.4246959,
                        40.8356915
                    ],
                    [
                        -85.4241122,
                        40.8347629
                    ],
                    [
                        -85.4227818,
                        40.8338278
                    ],
                    [
                        -85.4215373,
                        40.8329965
                    ],
                    [
                        -85.4204387,
                        40.8326718
                    ],
                    [
                        -85.4200782,
                        40.8323991
                    ],
                    [
                        -85.4204043,
                        40.8322692
                    ],
                    [
                        -85.4207477,
                        40.8319899
                    ],
                    [
                        -85.420782,
                        40.8317497
                    ],
                    [
                        -85.4207477,
                        40.8315159
                    ],
                    [
                        -85.4208335,
                        40.831308
                    ],
                    [
                        -85.421091,
                        40.8311457
                    ],
                    [
                        -85.4213656,
                        40.8309054
                    ],
                    [
                        -85.4217948,
                        40.8307236
                    ],
                    [
                        -85.4211511,
                        40.830821
                    ],
                    [
                        -85.4207477,
                        40.8310483
                    ],
                    [
                        -85.4204387,
                        40.8313405
                    ],
                    [
                        -85.4203786,
                        40.8317497
                    ],
                    [
                        -85.4203185,
                        40.8319899
                    ],
                    [
                        -85.4199923,
                        40.8321393
                    ],
                    [
                        -85.4197177,
                        40.8320549
                    ],
                    [
                        -85.4190053,
                        40.8316977
                    ],
                    [
                        -85.4176578,
                        40.8312301
                    ],
                    [
                        -85.4167479,
                        40.8308859
                    ],
                    [
                        -85.4158725,
                        40.8306586
                    ],
                    [
                        -85.4150828,
                        40.8303664
                    ],
                    [
                        -85.4143275,
                        40.8300871
                    ],
                    [
                        -85.4130916,
                        40.8298468
                    ],
                    [
                        -85.4128684,
                        40.8300741
                    ],
                    [
                        -85.4125508,
                        40.8304768
                    ],
                    [
                        -85.4127482,
                        40.8320549
                    ],
                    [
                        -85.4125766,
                        40.832464
                    ],
                    [
                        -85.4117526,
                        40.8323471
                    ],
                    [
                        -85.4116668,
                        40.8320224
                    ],
                    [
                        -85.4115809,
                        40.8303014
                    ],
                    [
                        -85.4113921,
                        40.8297169
                    ],
                    [
                        -85.4107741,
                        40.8296845
                    ],
                    [
                        -85.4099502,
                        40.8295546
                    ],
                    [
                        -85.409521,
                        40.8295546
                    ],
                    [
                        -85.4086627,
                        40.8294896
                    ],
                    [
                        -85.4082335,
                        40.8293078
                    ],
                    [
                        -85.4077701,
                        40.8295416
                    ],
                    [
                        -85.4068603,
                        40.829665
                    ],
                    [
                        -85.405856,
                        40.8294572
                    ],
                    [
                        -85.4047145,
                        40.8290155
                    ],
                    [
                        -85.4034099,
                        40.8285804
                    ],
                    [
                        -85.4025172,
                        40.8283076
                    ],
                    [
                        -85.4013413,
                        40.827879
                    ],
                    [
                        -85.3996848,
                        40.8276192
                    ],
                    [
                        -85.3982944,
                        40.8275737
                    ],
                    [
                        -85.3978652,
                        40.8273334
                    ],
                    [
                        -85.3976935,
                        40.8270542
                    ],
                    [
                        -85.3977365,
                        40.8267294
                    ],
                    [
                        -85.3974532,
                        40.826697
                    ],
                    [
                        -85.3973931,
                        40.8270217
                    ],
                    [
                        -85.397479,
                        40.827249
                    ],
                    [
                        -85.3971614,
                        40.8274244
                    ],
                    [
                        -85.3966464,
                        40.8274438
                    ],
                    [
                        -85.3961486,
                        40.8274763
                    ],
                    [
                        -85.3958739,
                        40.8271646
                    ],
                    [
                        -85.3954448,
                        40.8269048
                    ],
                    [
                        -85.3952216,
                        40.826697
                    ],
                    [
                        -85.3952216,
                        40.8263722
                    ],
                    [
                        -85.3949899,
                        40.8264242
                    ],
                    [
                        -85.3950156,
                        40.8266645
                    ],
                    [
                        -85.3948182,
                        40.8268398
                    ],
                    [
                        -85.3950156,
                        40.8271841
                    ],
                    [
                        -85.3951615,
                        40.8274633
                    ],
                    [
                        -85.3955049,
                        40.8277491
                    ],
                    [
                        -85.3953589,
                        40.8280284
                    ],
                    [
                        -85.3950328,
                        40.8283726
                    ],
                    [
                        -85.3942174,
                        40.8285154
                    ],
                    [
                        -85.3931102,
                        40.828431
                    ],
                    [
                        -85.3918399,
                        40.8284505
                    ],
                    [
                        -85.3911189,
                        40.828405
                    ],
                    [
                        -85.3900889,
                        40.8281453
                    ],
                    [
                        -85.3896911,
                        40.8280498
                    ],
                    [
                        -85.3892049,
                        40.8280933
                    ],
                    [
                        -85.3886298,
                        40.8281712
                    ],
                    [
                        -85.3879432,
                        40.8283661
                    ],
                    [
                        -85.3877028,
                        40.8286648
                    ],
                    [
                        -85.3883037,
                        40.8286648
                    ],
                    [
                        -85.388235,
                        40.8288402
                    ],
                    [
                        -85.3878573,
                        40.8292298
                    ],
                    [
                        -85.3870591,
                        40.8294701
                    ],
                    [
                        -85.3861751,
                        40.8296845
                    ],
                    [
                        -85.3855142,
                        40.8296845
                    ],
                    [
                        -85.3848018,
                        40.8296
                    ],
                    [
                        -85.3839263,
                        40.8293273
                    ],
                    [
                        -85.3831967,
                        40.8292298
                    ],
                    [
                        -85.382553,
                        40.8295026
                    ],
                    [
                        -85.3819865,
                        40.8297624
                    ],
                    [
                        -85.3811282,
                        40.8299312
                    ],
                    [
                        -85.3800982,
                        40.8297819
                    ],
                    [
                        -85.3796519,
                        40.8295416
                    ],
                    [
                        -85.3793258,
                        40.8293467
                    ],
                    [
                        -85.3791541,
                        40.8291519
                    ],
                    [
                        -85.3788794,
                        40.8288532
                    ],
                    [
                        -85.3784503,
                        40.8285284
                    ],
                    [
                        -85.3781756,
                        40.8282557
                    ],
                    [
                        -85.3778323,
                        40.827801
                    ],
                    [
                        -85.3775062,
                        40.8270996
                    ],
                    [
                        -85.3772315,
                        40.8265151
                    ],
                    [
                        -85.3765105,
                        40.8258072
                    ],
                    [
                        -85.3755321,
                        40.8252876
                    ],
                    [
                        -85.3740901,
                        40.824716
                    ],
                    [
                        -85.3734893,
                        40.8245212
                    ],
                    [
                        -85.3725451,
                        40.8237418
                    ],
                    [
                        -85.3711547,
                        40.822735
                    ],
                    [
                        -85.3706826,
                        40.8222479
                    ],
                    [
                        -85.370508,
                        40.8219832
                    ],
                    [
                        -85.3702277,
                        40.8217153
                    ]
                ],
                [
                    [
                        -85.3699702,
                        40.8217153
                    ],
                    [
                        -85.3701754,
                        40.8220481
                    ],
                    [
                        -85.3699101,
                        40.822105
                    ],
                    [
                        -85.3693093,
                        40.8218452
                    ],
                    [
                        -85.3685369,
                        40.8214165
                    ],
                    [
                        -85.3677043,
                        40.8208969
                    ],
                    [
                        -85.3676528,
                        40.820806
                    ],
                    [
                        -85.3683652,
                        40.8209619
                    ],
                    [
                        -85.3693952,
                        40.8214165
                    ],
                    [
                        -85.3699702,
                        40.8217153
                    ]
                ],
                [
                    [
                        -85.3787078,
                        40.8289376
                    ],
                    [
                        -85.378833,
                        40.829138
                    ],
                    [
                        -85.379069,
                        40.8293653
                    ],
                    [
                        -85.3788966,
                        40.8293597
                    ],
                    [
                        -85.378519,
                        40.8291649
                    ],
                    [
                        -85.3783215,
                        40.8289051
                    ],
                    [
                        -85.3787078,
                        40.8289376
                    ]
                ],
                [
                    [
                        -85.3770343,
                        40.8268726
                    ],
                    [
                        -85.3772403,
                        40.8273894
                    ],
                    [
                        -85.3773213,
                        40.8278663
                    ],
                    [
                        -85.377283,
                        40.8283856
                    ],
                    [
                        -85.3774804,
                        40.8288921
                    ],
                    [
                        -85.3782529,
                        40.829652
                    ],
                    [
                        -85.3790511,
                        40.8300222
                    ],
                    [
                        -85.3798579,
                        40.8303664
                    ],
                    [
                        -85.3804845,
                        40.8304638
                    ],
                    [
                        -85.3809737,
                        40.8305287
                    ],
                    [
                        -85.3805703,
                        40.8307236
                    ],
                    [
                        -85.3801669,
                        40.8306586
                    ],
                    [
                        -85.3793258,
                        40.8304118
                    ],
                    [
                        -85.3787936,
                        40.830269
                    ],
                    [
                        -85.3779525,
                        40.8300092
                    ],
                    [
                        -85.3775062,
                        40.8297364
                    ],
                    [
                        -85.3770255,
                        40.8292818
                    ],
                    [
                        -85.3764075,
                        40.8288532
                    ],
                    [
                        -85.3761329,
                        40.8287103
                    ],
                    [
                        -85.37615,
                        40.8282557
                    ],
                    [
                        -85.376665,
                        40.8280608
                    ],
                    [
                        -85.3767508,
                        40.8275932
                    ],
                    [
                        -85.3765105,
                        40.8270087
                    ],
                    [
                        -85.376253,
                        40.8266645
                    ],
                    [
                        -85.3762187,
                        40.8265151
                    ],
                    [
                        -85.3761808,
                        40.8260864
                    ],
                    [
                        -85.376662,
                        40.8264984
                    ],
                    [
                        -85.3770343,
                        40.8268726
                    ]
                ],
                [
                    [
                        -85.3894195,
                        40.8283531
                    ],
                    [
                        -85.3897456,
                        40.82847
                    ],
                    [
                        -85.3900889,
                        40.8287557
                    ],
                    [
                        -85.3902778,
                        40.8291324
                    ],
                    [
                        -85.3901748,
                        40.8294442
                    ],
                    [
                        -85.3896083,
                        40.8294896
                    ],
                    [
                        -85.3888186,
                        40.8293922
                    ],
                    [
                        -85.3885612,
                        40.8290805
                    ],
                    [
                        -85.3889474,
                        40.8286453
                    ],
                    [
                        -85.3894195,
                        40.8283531
                    ]
                ]
            ]
        }
    }
]