[
    {
        "type": "Feature",
        "id": "relation/13385107",
        "properties": {
            "@id": "relation/13385107",
            "description": "Dry year permanent lake boundary",
            "gnis:feature_id": "439290",
            "intermittent": "no",
            "name": "Mississinewa Lake (dry 2017 A)",
            "name:mia": "lenipinšiaakami",
            "natural": "water",
            "source:geometry": "IndianaMap Orthoimagery 2017",
            "type": "multipolygon",
            "water": "reservoir",
            "@timestamp": "2024-09-13T20:33:28Z",
            "@version": 12,
            "@changeset": 156588267,
            "@user": "uneaten puffed",
            "@uid": 21883015,
            "@osm3s:version": 0.6,
            "@osm3s:generator": "Overpass API 0.7.62.5 1bd436f1",
            "@osm3s:timestamp_osm_base": "2025-02-16T09:39:28Z",
            "@osm3s:copyright": "The data included in this document is from www.openstreetmap.org. The data is made available under ODbL."
        },
        "geometry": {
            "type": "Polygon",
            "coordinates": [
                [
                    [
                        -85.930303,
                        40.7147265
                    ],
                    [
                        -85.9303091,
                        40.7152195
                    ],
                    [
                        -85.930575,
                        40.7151634
                    ],
                    [
                        -85.9308356,
                        40.7151766
                    ],
                    [
                        -85.9311365,
                        40.7152572
                    ],
                    [
                        -85.9313355,
                        40.7153492
                    ],
                    [
                        -85.9315625,
                        40.7153505
                    ],
                    [
                        -85.9316552,
                        40.7153954
                    ],
                    [
                        -85.9317612,
                        40.7154093
                    ],
                    [
                        -85.9319276,
                        40.7154156
                    ],
                    [
                        -85.9320186,
                        40.7153498
                    ],
                    [
                        -85.9322437,
                        40.7151646
                    ],
                    [
                        -85.9325845,
                        40.7150787
                    ],
                    [
                        -85.932763,
                        40.7149686
                    ],
                    [
                        -85.932828,
                        40.7149744
                    ],
                    [
                        -85.9328873,
                        40.7150383
                    ],
                    [
                        -85.9328898,
                        40.7149333
                    ],
                    [
                        -85.9329232,
                        40.7148587
                    ],
                    [
                        -85.9329417,
                        40.714665
                    ],
                    [
                        -85.9329233,
                        40.7145258
                    ],
                    [
                        -85.9329926,
                        40.7143935
                    ],
                    [
                        -85.9329817,
                        40.714281
                    ],
                    [
                        -85.9331367,
                        40.7140388
                    ],
                    [
                        -85.9332093,
                        40.7139793
                    ],
                    [
                        -85.9332719,
                        40.7138756
                    ],
                    [
                        -85.9332785,
                        40.7137885
                    ],
                    [
                        -85.9333077,
                        40.7137379
                    ],
                    [
                        -85.9332927,
                        40.7136956
                    ],
                    [
                        -85.9333261,
                        40.713633
                    ],
                    [
                        -85.9334913,
                        40.7136203
                    ],
                    [
                        -85.9335482,
                        40.7135895
                    ],
                    [
                        -85.9336625,
                        40.7135699
                    ],
                    [
                        -85.9337234,
                        40.7135288
                    ],
                    [
                        -85.9339328,
                        40.7135077
                    ],
                    [
                        -85.9343676,
                        40.7134438
                    ],
                    [
                        -85.9344268,
                        40.7134691
                    ],
                    [
                        -85.934542,
                        40.7134363
                    ],
                    [
                        -85.9345844,
                        40.713415
                    ],
                    [
                        -85.9346687,
                        40.7134112
                    ],
                    [
                        -85.9347012,
                        40.7134479
                    ],
                    [
                        -85.9347847,
                        40.7134409
                    ],
                    [
                        -85.9348297,
                        40.7134662
                    ],
                    [
                        -85.9348715,
                        40.7134327
                    ],
                    [
                        -85.9349516,
                        40.7134251
                    ],
                    [
                        -85.9350409,
                        40.7134459
                    ],
                    [
                        -85.9350659,
                        40.7134738
                    ],
                    [
                        -85.9351085,
                        40.7134656
                    ],
                    [
                        -85.9351101,
                        40.7134244
                    ],
                    [
                        -85.9353905,
                        40.7134114
                    ],
                    [
                        -85.9354964,
                        40.7134631
                    ],
                    [
                        -85.9354881,
                        40.7134967
                    ],
                    [
                        -85.9355306,
                        40.7135049
                    ],
                    [
                        -85.9356032,
                        40.713453
                    ],
                    [
                        -85.9357014,
                        40.7134371
                    ],
                    [
                        -85.935824,
                        40.7134314
                    ],
                    [
                        -85.936132,
                        40.7135244
                    ],
                    [
                        -85.9363755,
                        40.7135494
                    ],
                    [
                        -85.9364831,
                        40.7135235
                    ],
                    [
                        -85.9365907,
                        40.7135434
                    ],
                    [
                        -85.9366958,
                        40.7135288
                    ],
                    [
                        -85.9367884,
                        40.7135768
                    ],
                    [
                        -85.9370095,
                        40.71364
                    ],
                    [
                        -85.9370671,
                        40.7137639
                    ],
                    [
                        -85.9370889,
                        40.7137706
                    ],
                    [
                        -85.9371122,
                        40.7137778
                    ],
                    [
                        -85.9372173,
                        40.7137127
                    ],
                    [
                        -85.9373365,
                        40.7137113
                    ],
                    [
                        -85.9374049,
                        40.7137277
                    ],
                    [
                        -85.9375843,
                        40.7137214
                    ],
                    [
                        -85.9376827,
                        40.713833
                    ],
                    [
                        -85.9377644,
                        40.7138552
                    ],
                    [
                        -85.9378771,
                        40.7138615
                    ],
                    [
                        -85.9379246,
                        40.7138255
                    ],
                    [
                        -85.9381325,
                        40.7138861
                    ],
                    [
                        -85.9382067,
                        40.7139936
                    ],
                    [
                        -85.9381809,
                        40.7141075
                    ],
                    [
                        -85.9381333,
                        40.7141562
                    ],
                    [
                        -85.9382193,
                        40.7142232
                    ],
                    [
                        -85.9383195,
                        40.7142353
                    ],
                    [
                        -85.9383971,
                        40.7142036
                    ],
                    [
                        -85.9384955,
                        40.7141037
                    ],
                    [
                        -85.938533,
                        40.7139459
                    ],
                    [
                        -85.9385948,
                        40.7139168
                    ],
                    [
                        -85.9392593,
                        40.7139035
                    ],
                    [
                        -85.9393177,
                        40.7139344
                    ],
                    [
                        -85.9393136,
                        40.7139907
                    ],
                    [
                        -85.9392852,
                        40.7140406
                    ],
                    [
                        -85.9393044,
                        40.714231
                    ],
                    [
                        -85.939397,
                        40.7142664
                    ],
                    [
                        -85.9394868,
                        40.7142476
                    ],
                    [
                        -85.9395393,
                        40.7141957
                    ],
                    [
                        -85.9395235,
                        40.7141312
                    ],
                    [
                        -85.9396545,
                        40.7139313
                    ],
                    [
                        -85.9397529,
                        40.7139153
                    ],
                    [
                        -85.9400583,
                        40.7139735
                    ],
                    [
                        -85.9401942,
                        40.7139663
                    ],
                    [
                        -85.9403486,
                        40.7139954
                    ],
                    [
                        -85.9404362,
                        40.7140252
                    ],
                    [
                        -85.9405614,
                        40.7140056
                    ],
                    [
                        -85.940644,
                        40.7139695
                    ],
                    [
                        -85.9409618,
                        40.713968
                    ],
                    [
                        -85.9410461,
                        40.7139307
                    ],
                    [
                        -85.9411129,
                        40.7139591
                    ],
                    [
                        -85.9413665,
                        40.7140275
                    ],
                    [
                        -85.9414517,
                        40.7139921
                    ],
                    [
                        -85.9415167,
                        40.7139686
                    ],
                    [
                        -85.9418597,
                        40.7139648
                    ],
                    [
                        -85.9419932,
                        40.7140072
                    ],
                    [
                        -85.9420675,
                        40.7140063
                    ],
                    [
                        -85.9421802,
                        40.7139734
                    ],
                    [
                        -85.9424909,
                        40.7139712
                    ],
                    [
                        -85.9427646,
                        40.7139953
                    ],
                    [
                        -85.9429579,
                        40.7141166
                    ],
                    [
                        -85.9431456,
                        40.7141694
                    ],
                    [
                        -85.943446,
                        40.714196
                    ],
                    [
                        -85.9436594,
                        40.7142803
                    ],
                    [
                        -85.9439762,
                        40.7143809
                    ],
                    [
                        -85.9440453,
                        40.7144256
                    ],
                    [
                        -85.9441169,
                        40.7144318
                    ],
                    [
                        -85.9441858,
                        40.7144842
                    ],
                    [
                        -85.9441782,
                        40.7145643
                    ],
                    [
                        -85.9442258,
                        40.7146093
                    ],
                    [
                        -85.9442854,
                        40.7147425
                    ],
                    [
                        -85.9448625,
                        40.7147972
                    ],
                    [
                        -85.9457362,
                        40.7150054
                    ],
                    [
                        -85.9461166,
                        40.7150794
                    ],
                    [
                        -85.948015,
                        40.715651
                    ],
                    [
                        -85.9481536,
                        40.7157238
                    ],
                    [
                        -85.9483765,
                        40.7158001
                    ],
                    [
                        -85.9485695,
                        40.7157984
                    ],
                    [
                        -85.9487107,
                        40.7158216
                    ],
                    [
                        -85.948713,
                        40.7159044
                    ],
                    [
                        -85.9488194,
                        40.7158999
                    ],
                    [
                        -85.9491502,
                        40.7159605
                    ],
                    [
                        -85.9492606,
                        40.7160038
                    ],
                    [
                        -85.9495911,
                        40.716194
                    ],
                    [
                        -85.9501016,
                        40.7163835
                    ],
                    [
                        -85.9503559,
                        40.7164029
                    ],
                    [
                        -85.9505661,
                        40.7163786
                    ],
                    [
                        -85.9508391,
                        40.7163954
                    ],
                    [
                        -85.9509011,
                        40.7164234
                    ],
                    [
                        -85.9510687,
                        40.7164447
                    ],
                    [
                        -85.9512345,
                        40.7165293
                    ],
                    [
                        -85.9514309,
                        40.7165938
                    ],
                    [
                        -85.9515721,
                        40.7167034
                    ],
                    [
                        -85.9515673,
                        40.7167532
                    ],
                    [
                        -85.9517808,
                        40.7169432
                    ],
                    [
                        -85.9519319,
                        40.7170104
                    ],
                    [
                        -85.952129,
                        40.717036
                    ],
                    [
                        -85.9523079,
                        40.7171504
                    ],
                    [
                        -85.95249,
                        40.7172126
                    ],
                    [
                        -85.9586046,
                        40.7143882
                    ],
                    [
                        -85.9587092,
                        40.714312
                    ],
                    [
                        -85.9588058,
                        40.7142804
                    ],
                    [
                        -85.9588705,
                        40.7142288
                    ],
                    [
                        -85.9590318,
                        40.7141623
                    ],
                    [
                        -85.9590867,
                        40.7141082
                    ],
                    [
                        -85.9591295,
                        40.7140615
                    ],
                    [
                        -85.9591357,
                        40.7140058
                    ],
                    [
                        -85.9590872,
                        40.7138835
                    ],
                    [
                        -85.9592929,
                        40.7138467
                    ],
                    [
                        -85.9593445,
                        40.7138171
                    ],
                    [
                        -85.9594007,
                        40.7138167
                    ],
                    [
                        -85.959768,
                        40.7137216
                    ],
                    [
                        -85.9599235,
                        40.7136199
                    ],
                    [
                        -85.9600323,
                        40.7135912
                    ],
                    [
                        -85.9602116,
                        40.7133654
                    ],
                    [
                        -85.9601998,
                        40.7132999
                    ],
                    [
                        -85.9602276,
                        40.7132242
                    ],
                    [
                        -85.9603134,
                        40.7131985
                    ],
                    [
                        -85.9604494,
                        40.7129175
                    ],
                    [
                        -85.9605073,
                        40.7129341
                    ],
                    [
                        -85.9605506,
                        40.712926
                    ],
                    [
                        -85.9605973,
                        40.7128664
                    ],
                    [
                        -85.960522,
                        40.7127842
                    ],
                    [
                        -85.9603813,
                        40.7127281
                    ],
                    [
                        -85.9602961,
                        40.7127198
                    ],
                    [
                        -85.9600401,
                        40.7125778
                    ],
                    [
                        -85.9599714,
                        40.7125658
                    ],
                    [
                        -85.9599046,
                        40.7125237
                    ],
                    [
                        -85.9598762,
                        40.7124582
                    ],
                    [
                        -85.9599643,
                        40.7124591
                    ],
                    [
                        -85.960335,
                        40.7123588
                    ],
                    [
                        -85.960484,
                        40.7122306
                    ],
                    [
                        -85.9605589,
                        40.7121055
                    ],
                    [
                        -85.9606559,
                        40.7120038
                    ],
                    [
                        -85.9606994,
                        40.7119776
                    ],
                    [
                        -85.9607165,
                        40.7119023
                    ],
                    [
                        -85.9607715,
                        40.7118534
                    ],
                    [
                        -85.9608123,
                        40.7117799
                    ],
                    [
                        -85.9608394,
                        40.7116497
                    ],
                    [
                        -85.9607347,
                        40.711509
                    ],
                    [
                        -85.9606827,
                        40.7114879
                    ],
                    [
                        -85.9606452,
                        40.7114403
                    ],
                    [
                        -85.9606748,
                        40.7112906
                    ],
                    [
                        -85.9606145,
                        40.7111834
                    ],
                    [
                        -85.9605654,
                        40.7111448
                    ],
                    [
                        -85.9606375,
                        40.7111304
                    ],
                    [
                        -85.9605842,
                        40.7109546
                    ],
                    [
                        -85.9604139,
                        40.7109743
                    ],
                    [
                        -85.9603069,
                        40.7109227
                    ],
                    [
                        -85.9602484,
                        40.7109353
                    ],
                    [
                        -85.9601845,
                        40.7109994
                    ],
                    [
                        -85.9601214,
                        40.7109967
                    ],
                    [
                        -85.9600315,
                        40.7109098
                    ],
                    [
                        -85.9599812,
                        40.7108286
                    ],
                    [
                        -85.959996,
                        40.7107179
                    ],
                    [
                        -85.9600527,
                        40.7105918
                    ],
                    [
                        -85.9600574,
                        40.7104887
                    ],
                    [
                        -85.9600119,
                        40.7103847
                    ],
                    [
                        -85.9599357,
                        40.7103167
                    ],
                    [
                        -85.9598363,
                        40.7103105
                    ],
                    [
                        -85.9598068,
                        40.7102365
                    ],
                    [
                        -85.9597104,
                        40.7102105
                    ],
                    [
                        -85.9597068,
                        40.7101757
                    ],
                    [
                        -85.9596206,
                        40.7101697
                    ],
                    [
                        -85.9594097,
                        40.7101112
                    ],
                    [
                        -85.9592914,
                        40.7101076
                    ],
                    [
                        -85.9592016,
                        40.7100261
                    ],
                    [
                        -85.9589874,
                        40.7100669
                    ],
                    [
                        -85.9589434,
                        40.7101328
                    ],
                    [
                        -85.9590749,
                        40.7102729
                    ],
                    [
                        -85.958984,
                        40.7104052
                    ],
                    [
                        -85.9589569,
                        40.7105186
                    ],
                    [
                        -85.9591744,
                        40.7108916
                    ],
                    [
                        -85.9592676,
                        40.7109562
                    ],
                    [
                        -85.9593019,
                        40.7110145
                    ],
                    [
                        -85.9594104,
                        40.7110539
                    ],
                    [
                        -85.9594702,
                        40.7110553
                    ],
                    [
                        -85.9596193,
                        40.7110938
                    ],
                    [
                        -85.9596571,
                        40.7111405
                    ],
                    [
                        -85.9596343,
                        40.7112285
                    ],
                    [
                        -85.959754,
                        40.7114535
                    ],
                    [
                        -85.9599138,
                        40.7115438
                    ],
                    [
                        -85.9599877,
                        40.7117002
                    ],
                    [
                        -85.9599725,
                        40.7117584
                    ],
                    [
                        -85.9598019,
                        40.7118101
                    ],
                    [
                        -85.9597651,
                        40.7118534
                    ],
                    [
                        -85.9595521,
                        40.7118851
                    ],
                    [
                        -85.9594397,
                        40.7118629
                    ],
                    [
                        -85.9592674,
                        40.7118809
                    ],
                    [
                        -85.9591623,
                        40.7119292
                    ],
                    [
                        -85.9591172,
                        40.71199
                    ],
                    [
                        -85.9590737,
                        40.7120688
                    ],
                    [
                        -85.9590302,
                        40.7121527
                    ],
                    [
                        -85.9590357,
                        40.7123067
                    ],
                    [
                        -85.9591074,
                        40.7124562
                    ],
                    [
                        -85.9591278,
                        40.7125345
                    ],
                    [
                        -85.9591718,
                        40.712627
                    ],
                    [
                        -85.9592119,
                        40.7126608
                    ],
                    [
                        -85.9592591,
                        40.7126716
                    ],
                    [
                        -85.9593382,
                        40.7127071
                    ],
                    [
                        -85.9594026,
                        40.7127602
                    ],
                    [
                        -85.9595019,
                        40.7127921
                    ],
                    [
                        -85.9595895,
                        40.7127951
                    ],
                    [
                        -85.9596384,
                        40.7128382
                    ],
                    [
                        -85.9596802,
                        40.7128446
                    ],
                    [
                        -85.9597198,
                        40.712899
                    ],
                    [
                        -85.9598004,
                        40.7130514
                    ],
                    [
                        -85.959797,
                        40.7131126
                    ],
                    [
                        -85.9597438,
                        40.7131636
                    ],
                    [
                        -85.9596371,
                        40.713191
                    ],
                    [
                        -85.9595433,
                        40.7132869
                    ],
                    [
                        -85.9594502,
                        40.713325
                    ],
                    [
                        -85.9594129,
                        40.7133695
                    ],
                    [
                        -85.9593214,
                        40.7134007
                    ],
                    [
                        -85.9591401,
                        40.7134097
                    ],
                    [
                        -85.9590651,
                        40.7133919
                    ],
                    [
                        -85.9590098,
                        40.7134026
                    ],
                    [
                        -85.9589351,
                        40.713452
                    ],
                    [
                        -85.9587007,
                        40.7135136
                    ],
                    [
                        -85.9585469,
                        40.7135807
                    ],
                    [
                        -85.9584836,
                        40.7135948
                    ],
                    [
                        -85.9583197,
                        40.7137205
                    ],
                    [
                        -85.9582875,
                        40.7137795
                    ],
                    [
                        -85.9581786,
                        40.7138914
                    ],
                    [
                        -85.9581893,
                        40.7139651
                    ],
                    [
                        -85.9581554,
                        40.713999
                    ],
                    [
                        -85.9578984,
                        40.7140037
                    ],
                    [
                        -85.957853,
                        40.7139825
                    ],
                    [
                        -85.9578434,
                        40.7138798
                    ],
                    [
                        -85.9577643,
                        40.7138824
                    ],
                    [
                        -85.95767,
                        40.7136852
                    ],
                    [
                        -85.9576768,
                        40.7135688
                    ],
                    [
                        -85.9575988,
                        40.7134836
                    ],
                    [
                        -85.9575779,
                        40.7134184
                    ],
                    [
                        -85.9575966,
                        40.7133645
                    ],
                    [
                        -85.9576005,
                        40.7132446
                    ],
                    [
                        -85.9576638,
                        40.7131658
                    ],
                    [
                        -85.9576405,
                        40.7130556
                    ],
                    [
                        -85.9575479,
                        40.713014
                    ],
                    [
                        -85.9575321,
                        40.7129665
                    ],
                    [
                        -85.9575705,
                        40.7129229
                    ],
                    [
                        -85.9575591,
                        40.7127755
                    ],
                    [
                        -85.9576405,
                        40.7127185
                    ],
                    [
                        -85.9576636,
                        40.712647
                    ],
                    [
                        -85.9577441,
                        40.7125491
                    ],
                    [
                        -85.9576413,
                        40.7124665
                    ],
                    [
                        -85.9576086,
                        40.7124027
                    ],
                    [
                        -85.95766,
                        40.7123479
                    ],
                    [
                        -85.9577189,
                        40.7123399
                    ],
                    [
                        -85.957746,
                        40.7122745
                    ],
                    [
                        -85.9578013,
                        40.7122448
                    ],
                    [
                        -85.9578926,
                        40.7120606
                    ],
                    [
                        -85.9578444,
                        40.7119655
                    ],
                    [
                        -85.9576406,
                        40.7118986
                    ],
                    [
                        -85.9575553,
                        40.7118521
                    ],
                    [
                        -85.9572314,
                        40.7117298
                    ],
                    [
                        -85.9571366,
                        40.7117497
                    ],
                    [
                        -85.9570934,
                        40.7117408
                    ],
                    [
                        -85.9570117,
                        40.7116356
                    ],
                    [
                        -85.9569701,
                        40.7115346
                    ],
                    [
                        -85.9568926,
                        40.7114366
                    ],
                    [
                        -85.9568263,
                        40.7114062
                    ],
                    [
                        -85.9567293,
                        40.7114188
                    ],
                    [
                        -85.9566536,
                        40.7113307
                    ],
                    [
                        -85.9567008,
                        40.7113116
                    ],
                    [
                        -85.9566574,
                        40.7111387
                    ],
                    [
                        -85.956579,
                        40.7111507
                    ],
                    [
                        -85.9564858,
                        40.7111224
                    ],
                    [
                        -85.9564474,
                        40.7109453
                    ],
                    [
                        -85.9563652,
                        40.7109507
                    ],
                    [
                        -85.9562343,
                        40.710923
                    ],
                    [
                        -85.9562289,
                        40.7108653
                    ],
                    [
                        -85.9560882,
                        40.7107331
                    ],
                    [
                        -85.9560552,
                        40.7106137
                    ],
                    [
                        -85.9559106,
                        40.7103585
                    ],
                    [
                        -85.9558252,
                        40.7101714
                    ],
                    [
                        -85.9558299,
                        40.7097529
                    ],
                    [
                        -85.9557878,
                        40.7097347
                    ],
                    [
                        -85.9557378,
                        40.7096177
                    ],
                    [
                        -85.9556848,
                        40.7095403
                    ],
                    [
                        -85.9556333,
                        40.7095267
                    ],
                    [
                        -85.9554529,
                        40.7093739
                    ],
                    [
                        -85.9553031,
                        40.7093477
                    ],
                    [
                        -85.9549889,
                        40.709258
                    ],
                    [
                        -85.954856,
                        40.7092219
                    ],
                    [
                        -85.9547999,
                        40.7092639
                    ],
                    [
                        -85.9548237,
                        40.7093506
                    ],
                    [
                        -85.9548575,
                        40.7093821
                    ],
                    [
                        -85.9548936,
                        40.7094985
                    ],
                    [
                        -85.954979,
                        40.7095862
                    ],
                    [
                        -85.9550343,
                        40.7097003
                    ],
                    [
                        -85.955045,
                        40.7097748
                    ],
                    [
                        -85.9549873,
                        40.7098636
                    ],
                    [
                        -85.9548644,
                        40.709951
                    ],
                    [
                        -85.9547016,
                        40.710089
                    ],
                    [
                        -85.9546361,
                        40.7101138
                    ],
                    [
                        -85.9545424,
                        40.7100858
                    ],
                    [
                        -85.9544902,
                        40.7100078
                    ],
                    [
                        -85.9544571,
                        40.7095824
                    ],
                    [
                        -85.9544402,
                        40.7094869
                    ],
                    [
                        -85.9542052,
                        40.7091884
                    ],
                    [
                        -85.9543135,
                        40.7091448
                    ],
                    [
                        -85.9542743,
                        40.7090574
                    ],
                    [
                        -85.9541975,
                        40.7090481
                    ],
                    [
                        -85.9541484,
                        40.7089596
                    ],
                    [
                        -85.9542183,
                        40.7089346
                    ],
                    [
                        -85.9541614,
                        40.7088507
                    ],
                    [
                        -85.9539696,
                        40.7088209
                    ],
                    [
                        -85.9537797,
                        40.7088
                    ],
                    [
                        -85.9536753,
                        40.7088454
                    ],
                    [
                        -85.9535647,
                        40.708889
                    ],
                    [
                        -85.9532678,
                        40.7091389
                    ],
                    [
                        -85.9532111,
                        40.7091715
                    ],
                    [
                        -85.9529321,
                        40.7091816
                    ],
                    [
                        -85.9528386,
                        40.7091311
                    ],
                    [
                        -85.9527926,
                        40.7090572
                    ],
                    [
                        -85.9527668,
                        40.708732
                    ],
                    [
                        -85.9526103,
                        40.7086119
                    ],
                    [
                        -85.9524739,
                        40.7086489
                    ],
                    [
                        -85.9524015,
                        40.7086266
                    ],
                    [
                        -85.9521624,
                        40.7086291
                    ],
                    [
                        -85.9521128,
                        40.7086642
                    ],
                    [
                        -85.9520177,
                        40.7086669
                    ],
                    [
                        -85.951878,
                        40.7085565
                    ],
                    [
                        -85.9516435,
                        40.708432
                    ],
                    [
                        -85.9514633,
                        40.7083701
                    ],
                    [
                        -85.951353,
                        40.7082514
                    ],
                    [
                        -85.9513285,
                        40.7081896
                    ],
                    [
                        -85.9513849,
                        40.7080122
                    ],
                    [
                        -85.9514649,
                        40.7079031
                    ],
                    [
                        -85.9515861,
                        40.7077834
                    ],
                    [
                        -85.9517081,
                        40.7077113
                    ],
                    [
                        -85.9517815,
                        40.7076361
                    ],
                    [
                        -85.9524922,
                        40.7070522
                    ],
                    [
                        -85.9526967,
                        40.7068984
                    ],
                    [
                        -85.9528817,
                        40.7067747
                    ],
                    [
                        -85.9531715,
                        40.7064924
                    ],
                    [
                        -85.9534259,
                        40.7062732
                    ],
                    [
                        -85.9537363,
                        40.7058915
                    ],
                    [
                        -85.9537725,
                        40.7057728
                    ],
                    [
                        -85.9537633,
                        40.7056241
                    ],
                    [
                        -85.9536412,
                        40.7055602
                    ],
                    [
                        -85.9534259,
                        40.7056069
                    ],
                    [
                        -85.9531893,
                        40.7057984
                    ],
                    [
                        -85.9531354,
                        40.7058718
                    ],
                    [
                        -85.953053,
                        40.7059412
                    ],
                    [
                        -85.9526643,
                        40.7062265
                    ],
                    [
                        -85.9523594,
                        40.7064427
                    ],
                    [
                        -85.9521212,
                        40.7066329
                    ],
                    [
                        -85.9520446,
                        40.7067213
                    ],
                    [
                        -85.9519612,
                        40.7067487
                    ],
                    [
                        -85.9518947,
                        40.7068349
                    ],
                    [
                        -85.9514521,
                        40.7072075
                    ],
                    [
                        -85.9513831,
                        40.7072337
                    ],
                    [
                        -85.9512173,
                        40.7073549
                    ],
                    [
                        -85.9510742,
                        40.7074985
                    ],
                    [
                        -85.9509547,
                        40.7075764
                    ],
                    [
                        -85.950815,
                        40.7076755
                    ],
                    [
                        -85.9505616,
                        40.7079567
                    ],
                    [
                        -85.9505642,
                        40.7080429
                    ],
                    [
                        -85.9506231,
                        40.7081093
                    ],
                    [
                        -85.9506433,
                        40.7083224
                    ],
                    [
                        -85.9506054,
                        40.7083811
                    ],
                    [
                        -85.9505247,
                        40.7083352
                    ],
                    [
                        -85.9504675,
                        40.7083462
                    ],
                    [
                        -85.950422,
                        40.708355
                    ],
                    [
                        -85.9503801,
                        40.7084172
                    ],
                    [
                        -85.9502337,
                        40.7083456
                    ],
                    [
                        -85.9501195,
                        40.7083362
                    ],
                    [
                        -85.9499638,
                        40.7083858
                    ],
                    [
                        -85.9498986,
                        40.7084756
                    ],
                    [
                        -85.9497734,
                        40.708513
                    ],
                    [
                        -85.9496429,
                        40.7085166
                    ],
                    [
                        -85.9495376,
                        40.7085127
                    ],
                    [
                        -85.9493714,
                        40.7085536
                    ],
                    [
                        -85.9491203,
                        40.7086596
                    ],
                    [
                        -85.9489665,
                        40.7086721
                    ],
                    [
                        -85.9487997,
                        40.7086456
                    ],
                    [
                        -85.9486511,
                        40.7085662
                    ],
                    [
                        -85.9485234,
                        40.7084769
                    ],
                    [
                        -85.948441,
                        40.7083625
                    ],
                    [
                        -85.9484019,
                        40.7082754
                    ],
                    [
                        -85.9483198,
                        40.7082822
                    ],
                    [
                        -85.9482594,
                        40.7082979
                    ],
                    [
                        -85.9482307,
                        40.7082515
                    ],
                    [
                        -85.9481828,
                        40.7082303
                    ],
                    [
                        -85.9480216,
                        40.7083515
                    ],
                    [
                        -85.9479936,
                        40.7084028
                    ],
                    [
                        -85.9479341,
                        40.7084138
                    ],
                    [
                        -85.9478104,
                        40.7083909
                    ],
                    [
                        -85.9477927,
                        40.7085254
                    ],
                    [
                        -85.9477868,
                        40.7086092
                    ],
                    [
                        -85.9477191,
                        40.708651
                    ],
                    [
                        -85.9477802,
                        40.7087626
                    ],
                    [
                        -85.9478163,
                        40.7089212
                    ],
                    [
                        -85.9479178,
                        40.7089423
                    ],
                    [
                        -85.9480032,
                        40.7090578
                    ],
                    [
                        -85.9479428,
                        40.7092286
                    ],
                    [
                        -85.9478406,
                        40.7092738
                    ],
                    [
                        -85.9477368,
                        40.709276
                    ],
                    [
                        -85.9476487,
                        40.7092878
                    ],
                    [
                        -85.9475331,
                        40.7093303
                    ],
                    [
                        -85.9474595,
                        40.7093699
                    ],
                    [
                        -85.9473146,
                        40.7093918
                    ],
                    [
                        -85.9472233,
                        40.7094353
                    ],
                    [
                        -85.9471534,
                        40.7094504
                    ],
                    [
                        -85.9471257,
                        40.7094352
                    ],
                    [
                        -85.947118,
                        40.7093681
                    ],
                    [
                        -85.9470527,
                        40.7093114
                    ],
                    [
                        -85.9469348,
                        40.7092667
                    ],
                    [
                        -85.9468506,
                        40.7092712
                    ],
                    [
                        -85.9467395,
                        40.7093107
                    ],
                    [
                        -85.9466284,
                        40.7093771
                    ],
                    [
                        -85.9465582,
                        40.7094799
                    ],
                    [
                        -85.9465227,
                        40.7095543
                    ],
                    [
                        -85.9464678,
                        40.709593
                    ],
                    [
                        -85.9463884,
                        40.7096858
                    ],
                    [
                        -85.9463491,
                        40.7097609
                    ],
                    [
                        -85.9461996,
                        40.7098117
                    ],
                    [
                        -85.9461361,
                        40.709814
                    ],
                    [
                        -85.9459675,
                        40.7098715
                    ],
                    [
                        -85.9459214,
                        40.7099002
                    ],
                    [
                        -85.9455072,
                        40.7100755
                    ],
                    [
                        -85.9454701,
                        40.710048
                    ],
                    [
                        -85.9454792,
                        40.7099615
                    ],
                    [
                        -85.9454581,
                        40.7098887
                    ],
                    [
                        -85.9454853,
                        40.7097862
                    ],
                    [
                        -85.9455994,
                        40.7097759
                    ],
                    [
                        -85.9456592,
                        40.7097489
                    ],
                    [
                        -85.9456577,
                        40.7096848
                    ],
                    [
                        -85.9456419,
                        40.7096223
                    ],
                    [
                        -85.9455746,
                        40.709549
                    ],
                    [
                        -85.9455141,
                        40.7094946
                    ],
                    [
                        -85.9453994,
                        40.709517
                    ],
                    [
                        -85.9450949,
                        40.7095152
                    ],
                    [
                        -85.9450193,
                        40.7095073
                    ],
                    [
                        -85.9449195,
                        40.7095468
                    ],
                    [
                        -85.9448477,
                        40.709631
                    ],
                    [
                        -85.944887,
                        40.7097393
                    ],
                    [
                        -85.944827,
                        40.7097626
                    ],
                    [
                        -85.9447205,
                        40.7098331
                    ],
                    [
                        -85.9446438,
                        40.709932
                    ],
                    [
                        -85.9446113,
                        40.7100128
                    ],
                    [
                        -85.9445551,
                        40.7100932
                    ],
                    [
                        -85.9445165,
                        40.7100971
                    ],
                    [
                        -85.9444757,
                        40.7100314
                    ],
                    [
                        -85.9444513,
                        40.7099626
                    ],
                    [
                        -85.9443772,
                        40.7099262
                    ],
                    [
                        -85.9442916,
                        40.709933
                    ],
                    [
                        -85.9442647,
                        40.7099715
                    ],
                    [
                        -85.9442261,
                        40.709955
                    ],
                    [
                        -85.9442253,
                        40.7099102
                    ],
                    [
                        -85.944234,
                        40.7098687
                    ],
                    [
                        -85.9442395,
                        40.7097056
                    ],
                    [
                        -85.9442624,
                        40.7096709
                    ],
                    [
                        -85.9442588,
                        40.7096171
                    ],
                    [
                        -85.9441543,
                        40.7095765
                    ],
                    [
                        -85.9441149,
                        40.7095843
                    ],
                    [
                        -85.9440573,
                        40.70963
                    ],
                    [
                        -85.9439495,
                        40.7098191
                    ],
                    [
                        -85.9439515,
                        40.7098646
                    ],
                    [
                        -85.9439902,
                        40.7099193
                    ],
                    [
                        -85.9439922,
                        40.7100042
                    ],
                    [
                        -85.9439188,
                        40.7100838
                    ],
                    [
                        -85.9437812,
                        40.7101866
                    ],
                    [
                        -85.9437248,
                        40.7102037
                    ],
                    [
                        -85.9436756,
                        40.7102342
                    ],
                    [
                        -85.9436212,
                        40.7102668
                    ],
                    [
                        -85.9435904,
                        40.7102629
                    ],
                    [
                        -85.9435975,
                        40.7101472
                    ],
                    [
                        -85.9435798,
                        40.7100531
                    ],
                    [
                        -85.9435612,
                        40.710025
                    ],
                    [
                        -85.9434828,
                        40.7100074
                    ],
                    [
                        -85.9434277,
                        40.7099288
                    ],
                    [
                        -85.9433819,
                        40.7098842
                    ],
                    [
                        -85.9433524,
                        40.7098293
                    ],
                    [
                        -85.9433469,
                        40.709746
                    ],
                    [
                        -85.9433252,
                        40.7096966
                    ],
                    [
                        -85.9432877,
                        40.709659
                    ],
                    [
                        -85.9432234,
                        40.7096333
                    ],
                    [
                        -85.9431233,
                        40.7096112
                    ],
                    [
                        -85.9430192,
                        40.7095337
                    ],
                    [
                        -85.9429806,
                        40.7094901
                    ],
                    [
                        -85.9429771,
                        40.7094432
                    ],
                    [
                        -85.9429951,
                        40.7093951
                    ],
                    [
                        -85.9430223,
                        40.7093575
                    ],
                    [
                        -85.9430676,
                        40.7093186
                    ],
                    [
                        -85.9431349,
                        40.7092867
                    ],
                    [
                        -85.9432055,
                        40.7092613
                    ],
                    [
                        -85.9432965,
                        40.7092547
                    ],
                    [
                        -85.9433889,
                        40.7092172
                    ],
                    [
                        -85.9435746,
                        40.7091077
                    ],
                    [
                        -85.9436164,
                        40.7090124
                    ],
                    [
                        -85.9435242,
                        40.7088689
                    ],
                    [
                        -85.9435286,
                        40.7088443
                    ],
                    [
                        -85.9434776,
                        40.7087993
                    ],
                    [
                        -85.9433995,
                        40.7087511
                    ],
                    [
                        -85.9432124,
                        40.7086776
                    ],
                    [
                        -85.9430961,
                        40.7086934
                    ],
                    [
                        -85.9429269,
                        40.7088101
                    ],
                    [
                        -85.942855,
                        40.7088437
                    ],
                    [
                        -85.9428416,
                        40.7088623
                    ],
                    [
                        -85.9427998,
                        40.7088584
                    ],
                    [
                        -85.9426149,
                        40.7091003
                    ],
                    [
                        -85.9424777,
                        40.7092518
                    ],
                    [
                        -85.9424123,
                        40.7093745
                    ],
                    [
                        -85.9424132,
                        40.7094206
                    ],
                    [
                        -85.9423911,
                        40.7094986
                    ],
                    [
                        -85.9423873,
                        40.7098064
                    ],
                    [
                        -85.9424262,
                        40.7098662
                    ],
                    [
                        -85.9425007,
                        40.7099098
                    ],
                    [
                        -85.9425654,
                        40.7099197
                    ],
                    [
                        -85.9426198,
                        40.7099122
                    ],
                    [
                        -85.9426887,
                        40.7098466
                    ],
                    [
                        -85.942779,
                        40.709785
                    ],
                    [
                        -85.9428511,
                        40.7097847
                    ],
                    [
                        -85.9429491,
                        40.709811
                    ],
                    [
                        -85.9429838,
                        40.7098526
                    ],
                    [
                        -85.9429719,
                        40.7099505
                    ],
                    [
                        -85.9429198,
                        40.7100749
                    ],
                    [
                        -85.9428938,
                        40.7101711
                    ],
                    [
                        -85.9429316,
                        40.7102228
                    ],
                    [
                        -85.9430405,
                        40.7103107
                    ],
                    [
                        -85.9431072,
                        40.7103289
                    ],
                    [
                        -85.943134,
                        40.710363
                    ],
                    [
                        -85.9431478,
                        40.710441
                    ],
                    [
                        -85.9429936,
                        40.710403
                    ],
                    [
                        -85.9429065,
                        40.7103585
                    ],
                    [
                        -85.9428856,
                        40.7103238
                    ],
                    [
                        -85.942746,
                        40.7102303
                    ],
                    [
                        -85.9425087,
                        40.7102539
                    ],
                    [
                        -85.9423794,
                        40.7102491
                    ],
                    [
                        -85.9423323,
                        40.7102439
                    ],
                    [
                        -85.9422488,
                        40.7102741
                    ],
                    [
                        -85.9422554,
                        40.710296
                    ],
                    [
                        -85.9422341,
                        40.7103084
                    ],
                    [
                        -85.942239,
                        40.7103485
                    ],
                    [
                        -85.9423483,
                        40.7104517
                    ],
                    [
                        -85.9423992,
                        40.7105176
                    ],
                    [
                        -85.9425253,
                        40.7106389
                    ],
                    [
                        -85.9425592,
                        40.7106925
                    ],
                    [
                        -85.9425579,
                        40.7107721
                    ],
                    [
                        -85.9425147,
                        40.7108302
                    ],
                    [
                        -85.9424236,
                        40.7108738
                    ],
                    [
                        -85.9423388,
                        40.7108959
                    ],
                    [
                        -85.9422177,
                        40.7109014
                    ],
                    [
                        -85.942101,
                        40.7108889
                    ],
                    [
                        -85.9419624,
                        40.7108623
                    ],
                    [
                        -85.9418368,
                        40.710825
                    ],
                    [
                        -85.941745,
                        40.7108225
                    ],
                    [
                        -85.9415453,
                        40.7107725
                    ],
                    [
                        -85.9413829,
                        40.7107477
                    ],
                    [
                        -85.9410401,
                        40.7106365
                    ],
                    [
                        -85.9406341,
                        40.7104641
                    ],
                    [
                        -85.9402894,
                        40.7102995
                    ],
                    [
                        -85.9400626,
                        40.710179
                    ],
                    [
                        -85.9398917,
                        40.7100577
                    ],
                    [
                        -85.9397169,
                        40.7099618
                    ],
                    [
                        -85.9391576,
                        40.709607
                    ],
                    [
                        -85.9391227,
                        40.7096061
                    ],
                    [
                        -85.9390569,
                        40.7095598
                    ],
                    [
                        -85.9390136,
                        40.7094982
                    ],
                    [
                        -85.938892,
                        40.7093526
                    ],
                    [
                        -85.9388461,
                        40.7092208
                    ],
                    [
                        -85.9388104,
                        40.7090558
                    ],
                    [
                        -85.9388149,
                        40.7088454
                    ],
                    [
                        -85.9387739,
                        40.7087526
                    ],
                    [
                        -85.938435,
                        40.7084903
                    ],
                    [
                        -85.9380779,
                        40.7082952
                    ],
                    [
                        -85.9379935,
                        40.708217
                    ],
                    [
                        -85.9379103,
                        40.7081229
                    ],
                    [
                        -85.9378361,
                        40.7080049
                    ],
                    [
                        -85.9378451,
                        40.7079004
                    ],
                    [
                        -85.9378658,
                        40.7078252
                    ],
                    [
                        -85.9378221,
                        40.7077695
                    ],
                    [
                        -85.9376772,
                        40.7077685
                    ],
                    [
                        -85.9375662,
                        40.7076766
                    ],
                    [
                        -85.9374296,
                        40.7075184
                    ],
                    [
                        -85.937286,
                        40.7074918
                    ],
                    [
                        -85.9371091,
                        40.7072836
                    ],
                    [
                        -85.9370842,
                        40.7072226
                    ],
                    [
                        -85.9369519,
                        40.7071149
                    ],
                    [
                        -85.9368209,
                        40.7069825
                    ],
                    [
                        -85.9367557,
                        40.7068847
                    ],
                    [
                        -85.9366252,
                        40.706662
                    ],
                    [
                        -85.9364359,
                        40.7064221
                    ],
                    [
                        -85.9362339,
                        40.7062411
                    ],
                    [
                        -85.9359684,
                        40.7061179
                    ],
                    [
                        -85.9356718,
                        40.7060398
                    ],
                    [
                        -85.9354063,
                        40.7061134
                    ],
                    [
                        -85.9353738,
                        40.7059785
                    ],
                    [
                        -85.9351063,
                        40.7058513
                    ],
                    [
                        -85.9350781,
                        40.7057731
                    ],
                    [
                        -85.9347508,
                        40.705495
                    ],
                    [
                        -85.934626,
                        40.7053285
                    ],
                    [
                        -85.934544,
                        40.7052931
                    ],
                    [
                        -85.934448,
                        40.7052085
                    ],
                    [
                        -85.9343105,
                        40.7049633
                    ],
                    [
                        -85.9342119,
                        40.7048565
                    ],
                    [
                        -85.9338803,
                        40.7045842
                    ],
                    [
                        -85.9336716,
                        40.704457
                    ],
                    [
                        -85.9333696,
                        40.7043325
                    ],
                    [
                        -85.9333495,
                        40.7042842
                    ],
                    [
                        -85.9332086,
                        40.7042376
                    ],
                    [
                        -85.933002,
                        40.7040055
                    ],
                    [
                        -85.9329511,
                        40.7038018
                    ],
                    [
                        -85.9328462,
                        40.7036307
                    ],
                    [
                        -85.932807,
                        40.7035424
                    ],
                    [
                        -85.9324468,
                        40.7032555
                    ],
                    [
                        -85.9322673,
                        40.7031306
                    ],
                    [
                        -85.9321847,
                        40.703039
                    ],
                    [
                        -85.9317969,
                        40.7028013
                    ],
                    [
                        -85.9315212,
                        40.7026121
                    ],
                    [
                        -85.9313464,
                        40.7025141
                    ],
                    [
                        -85.9312129,
                        40.7024491
                    ],
                    [
                        -85.9311249,
                        40.7024619
                    ],
                    [
                        -85.9311049,
                        40.7024168
                    ],
                    [
                        -85.9310477,
                        40.7023654
                    ],
                    [
                        -85.9308337,
                        40.7022835
                    ],
                    [
                        -85.9307606,
                        40.7023124
                    ],
                    [
                        -85.9307373,
                        40.7022522
                    ],
                    [
                        -85.9302554,
                        40.7020298
                    ],
                    [
                        -85.9302836,
                        40.7040705
                    ],
                    [
                        -85.9305781,
                        40.7041337
                    ],
                    [
                        -85.9305625,
                        40.7042187
                    ],
                    [
                        -85.9306508,
                        40.704285
                    ],
                    [
                        -85.9306796,
                        40.7042199
                    ],
                    [
                        -85.9308168,
                        40.7041962
                    ],
                    [
                        -85.9309378,
                        40.7042123
                    ],
                    [
                        -85.9310076,
                        40.7042566
                    ],
                    [
                        -85.9310565,
                        40.7042372
                    ],
                    [
                        -85.9311951,
                        40.7043382
                    ],
                    [
                        -85.9311839,
                        40.7044489
                    ],
                    [
                        -85.9313948,
                        40.7044371
                    ],
                    [
                        -85.9314136,
                        40.7045423
                    ],
                    [
                        -85.9313278,
                        40.7045721
                    ],
                    [
                        -85.9311129,
                        40.7045794
                    ],
                    [
                        -85.9314393,
                        40.7047284
                    ],
                    [
                        -85.9314288,
                        40.7049002
                    ],
                    [
                        -85.9315572,
                        40.7049993
                    ],
                    [
                        -85.9315547,
                        40.7051051
                    ],
                    [
                        -85.9319718,
                        40.7053467
                    ],
                    [
                        -85.9327063,
                        40.7057049
                    ],
                    [
                        -85.9327455,
                        40.7057819
                    ],
                    [
                        -85.9328847,
                        40.7058343
                    ],
                    [
                        -85.9331213,
                        40.7060112
                    ],
                    [
                        -85.9334267,
                        40.7062003
                    ],
                    [
                        -85.933879,
                        40.7065433
                    ],
                    [
                        -85.9346173,
                        40.7072222
                    ],
                    [
                        -85.9349202,
                        40.7074124
                    ],
                    [
                        -85.9352797,
                        40.7075658
                    ],
                    [
                        -85.9357248,
                        40.7080653
                    ],
                    [
                        -85.9358379,
                        40.7082654
                    ],
                    [
                        -85.9358587,
                        40.708392
                    ],
                    [
                        -85.9357881,
                        40.7084638
                    ],
                    [
                        -85.9356975,
                        40.7085136
                    ],
                    [
                        -85.9357215,
                        40.7086036
                    ],
                    [
                        -85.9357914,
                        40.7087061
                    ],
                    [
                        -85.9359566,
                        40.7089365
                    ],
                    [
                        -85.9360321,
                        40.7089893
                    ],
                    [
                        -85.9361387,
                        40.7091693
                    ],
                    [
                        -85.9360561,
                        40.7092057
                    ],
                    [
                        -85.9359936,
                        40.7091683
                    ],
                    [
                        -85.9359224,
                        40.7091698
                    ],
                    [
                        -85.9358979,
                        40.7091401
                    ],
                    [
                        -85.9357883,
                        40.7091482
                    ],
                    [
                        -85.9357392,
                        40.7091291
                    ],
                    [
                        -85.9356834,
                        40.7091386
                    ],
                    [
                        -85.9356363,
                        40.709116
                    ],
                    [
                        -85.9355679,
                        40.7090984
                    ],
                    [
                        -85.93554,
                        40.7092539
                    ],
                    [
                        -85.9354677,
                        40.7093143
                    ],
                    [
                        -85.9352405,
                        40.7093775
                    ],
                    [
                        -85.9351821,
                        40.7094304
                    ],
                    [
                        -85.9350605,
                        40.7093559
                    ],
                    [
                        -85.9349888,
                        40.7092759
                    ],
                    [
                        -85.9349163,
                        40.7092671
                    ],
                    [
                        -85.9347319,
                        40.7091745
                    ],
                    [
                        -85.9344325,
                        40.7090034
                    ],
                    [
                        -85.934373,
                        40.7089563
                    ],
                    [
                        -85.9340796,
                        40.7088722
                    ],
                    [
                        -85.9339826,
                        40.7088234
                    ],
                    [
                        -85.9339326,
                        40.7087433
                    ],
                    [
                        -85.933843,
                        40.7086316
                    ],
                    [
                        -85.9336621,
                        40.7085005
                    ],
                    [
                        -85.9335486,
                        40.7084718
                    ],
                    [
                        -85.9334196,
                        40.708333
                    ],
                    [
                        -85.9333432,
                        40.7083013
                    ],
                    [
                        -85.9333041,
                        40.7082475
                    ],
                    [
                        -85.9332444,
                        40.7082327
                    ],
                    [
                        -85.9332132,
                        40.7081829
                    ],
                    [
                        -85.9331355,
                        40.7081678
                    ],
                    [
                        -85.9330824,
                        40.7081471
                    ],
                    [
                        -85.9328098,
                        40.7081174
                    ],
                    [
                        -85.9325731,
                        40.7081243
                    ],
                    [
                        -85.9324209,
                        40.708108
                    ],
                    [
                        -85.9323432,
                        40.7080532
                    ],
                    [
                        -85.9323319,
                        40.7079751
                    ],
                    [
                        -85.9323444,
                        40.7079343
                    ],
                    [
                        -85.9323158,
                        40.7078996
                    ],
                    [
                        -85.9323517,
                        40.7078487
                    ],
                    [
                        -85.9323736,
                        40.7077883
                    ],
                    [
                        -85.9323484,
                        40.7077481
                    ],
                    [
                        -85.9323995,
                        40.707728
                    ],
                    [
                        -85.9323914,
                        40.7076342
                    ],
                    [
                        -85.9322911,
                        40.707606
                    ],
                    [
                        -85.9322599,
                        40.7075255
                    ],
                    [
                        -85.9321816,
                        40.707521
                    ],
                    [
                        -85.9321212,
                        40.7075612
                    ],
                    [
                        -85.9321026,
                        40.7076624
                    ],
                    [
                        -85.9320476,
                        40.7077906
                    ],
                    [
                        -85.9320841,
                        40.7078198
                    ],
                    [
                        -85.9320642,
                        40.707857
                    ],
                    [
                        -85.9319838,
                        40.7078233
                    ],
                    [
                        -85.9319167,
                        40.7077544
                    ],
                    [
                        -85.931851,
                        40.7077247
                    ],
                    [
                        -85.9317802,
                        40.7076422
                    ],
                    [
                        -85.9317032,
                        40.7075999
                    ],
                    [
                        -85.9316229,
                        40.7075883
                    ],
                    [
                        -85.9316061,
                        40.7075288
                    ],
                    [
                        -85.9316114,
                        40.7073939
                    ],
                    [
                        -85.9315849,
                        40.7073159
                    ],
                    [
                        -85.9315489,
                        40.7070847
                    ],
                    [
                        -85.9314766,
                        40.7069956
                    ],
                    [
                        -85.9313837,
                        40.7069399
                    ],
                    [
                        -85.9312874,
                        40.7069384
                    ],
                    [
                        -85.9311514,
                        40.7069047
                    ],
                    [
                        -85.9310279,
                        40.7068784
                    ],
                    [
                        -85.9309409,
                        40.7068437
                    ],
                    [
                        -85.9307334,
                        40.7067204
                    ],
                    [
                        -85.9305422,
                        40.7067002
                    ],
                    [
                        -85.9304568,
                        40.706732
                    ],
                    [
                        -85.9303977,
                        40.7068
                    ],
                    [
                        -85.9303937,
                        40.7068815
                    ],
                    [
                        -85.9302803,
                        40.7068725
                    ],
                    [
                        -85.9302983,
                        40.7119488
                    ],
                    [
                        -85.9303467,
                        40.7120026
                    ],
                    [
                        -85.9303851,
                        40.7120962
                    ],
                    [
                        -85.9303675,
                        40.7123913
                    ],
                    [
                        -85.9304091,
                        40.7126126
                    ],
                    [
                        -85.9305095,
                        40.7130191
                    ],
                    [
                        -85.9305544,
                        40.7131454
                    ],
                    [
                        -85.9306387,
                        40.7133123
                    ],
                    [
                        -85.9307271,
                        40.7134445
                    ],
                    [
                        -85.9308756,
                        40.7135836
                    ],
                    [
                        -85.9310308,
                        40.7137651
                    ],
                    [
                        -85.9310885,
                        40.7139243
                    ],
                    [
                        -85.9310401,
                        40.714004
                    ],
                    [
                        -85.9307975,
                        40.7143189
                    ],
                    [
                        -85.930664,
                        40.7143783
                    ],
                    [
                        -85.930303,
                        40.7147265
                    ]
                ],
                [
                    [
                        -85.943225,
                        40.7105156
                    ],
                    [
                        -85.943251,
                        40.7105133
                    ],
                    [
                        -85.9433141,
                        40.7105679
                    ],
                    [
                        -85.9433324,
                        40.7106307
                    ],
                    [
                        -85.9433089,
                        40.7106475
                    ],
                    [
                        -85.9432791,
                        40.7106409
                    ],
                    [
                        -85.9432271,
                        40.71058
                    ],
                    [
                        -85.943225,
                        40.7105156
                    ]
                ]
            ]
        }
    }
]