[
    {
        "type": "Feature",
        "id": "relation/87361",
        "properties": {
            "@id": "relation/87361",
            "alt_name": "Winton Woods Lake;West Fork of Mill Creek Lake;West Fork Mill Creek Lake;West Fork Lake",
            "ele": "206",
            "gnis:feature_id": "1048015;1077658",
            "landuse": "reservoir",
            "name": "Winton Lake",
            "natural": "water",
            "type": "multipolygon",
            "water": "lake",
            "@timestamp": "2024-05-27T17:57:12Z",
            "@version": 7,
            "@changeset": 151910236,
            "@user": "Mateusz Konieczny - bot account",
            "@uid": 3199858,
            "@osm3s:version": 0.6,
            "@osm3s:generator": "Overpass API 0.7.62.5 1bd436f1",
            "@osm3s:timestamp_osm_base": "2025-02-16T09:46:36Z",
            "@osm3s:copyright": "The data included in this document is from www.openstreetmap.org. The data is made available under ODbL."
        },
        "geometry": {
            "type": "Polygon",
            "coordinates": [
                [
                    [
                        -84.5302899,
                        39.255686
                    ],
                    [
                        -84.529011,
                        39.2556993
                    ],
                    [
                        -84.528393,
                        39.2557591
                    ],
                    [
                        -84.5273716,
                        39.2560183
                    ],
                    [
                        -84.5265991,
                        39.2562974
                    ],
                    [
                        -84.525964,
                        39.2564968
                    ],
                    [
                        -84.5254233,
                        39.2565765
                    ],
                    [
                        -84.5250714,
                        39.25653
                    ],
                    [
                        -84.5249366,
                        39.2564879
                    ],
                    [
                        -84.5245821,
                        39.2563772
                    ],
                    [
                        -84.5241186,
                        39.2561778
                    ],
                    [
                        -84.5238955,
                        39.2559983
                    ],
                    [
                        -84.5236256,
                        39.25588
                    ],
                    [
                        -84.523597,
                        39.2558171
                    ],
                    [
                        -84.5238526,
                        39.2556926
                    ],
                    [
                        -84.5243501,
                        39.2552985
                    ],
                    [
                        -84.5245478,
                        39.2548685
                    ],
                    [
                        -84.5246594,
                        39.2544631
                    ],
                    [
                        -84.5248161,
                        39.2539733
                    ],
                    [
                        -84.5248792,
                        39.2537521
                    ],
                    [
                        -84.524973,
                        39.2533855
                    ],
                    [
                        -84.5250334,
                        39.252833
                    ],
                    [
                        -84.525024,
                        39.2526024
                    ],
                    [
                        -84.524965,
                        39.2523189
                    ],
                    [
                        -84.524809,
                        39.2518711
                    ],
                    [
                        -84.524737,
                        39.2516387
                    ],
                    [
                        -84.524729,
                        39.2514829
                    ],
                    [
                        -84.5247839,
                        39.2513708
                    ],
                    [
                        -84.5249462,
                        39.2512596
                    ],
                    [
                        -84.5253888,
                        39.2512482
                    ],
                    [
                        -84.5258327,
                        39.2512025
                    ],
                    [
                        -84.525826,
                        39.2511091
                    ],
                    [
                        -84.5259172,
                        39.2510634
                    ],
                    [
                        -84.5261076,
                        39.2509014
                    ],
                    [
                        -84.5260084,
                        39.2508214
                    ],
                    [
                        -84.5258059,
                        39.2509678
                    ],
                    [
                        -84.525708,
                        39.2510301
                    ],
                    [
                        -84.5256047,
                        39.2510789
                    ],
                    [
                        -84.5254357,
                        39.2511215
                    ],
                    [
                        -84.5250817,
                        39.2511527
                    ],
                    [
                        -84.5248805,
                        39.2511683
                    ],
                    [
                        -84.5246968,
                        39.2512461
                    ],
                    [
                        -84.5245707,
                        39.2514144
                    ],
                    [
                        -84.52456,
                        39.2515826
                    ],
                    [
                        -84.5247452,
                        39.2524094
                    ],
                    [
                        -84.5247967,
                        39.2528879
                    ],
                    [
                        -84.5247705,
                        39.2533097
                    ],
                    [
                        -84.5247021,
                        39.2536513
                    ],
                    [
                        -84.5245399,
                        39.2538538
                    ],
                    [
                        -84.5244299,
                        39.2541207
                    ],
                    [
                        -84.5243333,
                        39.2542038
                    ],
                    [
                        -84.5242059,
                        39.2542401
                    ],
                    [
                        -84.5240852,
                        39.2542703
                    ],
                    [
                        -84.5239212,
                        39.2546558
                    ],
                    [
                        -84.5236809,
                        39.255121
                    ],
                    [
                        -84.5235436,
                        39.2551476
                    ],
                    [
                        -84.5225394,
                        39.2548685
                    ],
                    [
                        -84.5222218,
                        39.2547754
                    ],
                    [
                        -84.5218999,
                        39.2546253
                    ],
                    [
                        -84.5214015,
                        39.2546083
                    ],
                    [
                        -84.5204966,
                        39.2542371
                    ],
                    [
                        -84.5200074,
                        39.2540178
                    ],
                    [
                        -84.5192894,
                        39.2538365
                    ],
                    [
                        -84.5191423,
                        39.2538518
                    ],
                    [
                        -84.5188438,
                        39.253998
                    ],
                    [
                        -84.5182993,
                        39.254257
                    ],
                    [
                        -84.5177843,
                        39.2547223
                    ],
                    [
                        -84.5171203,
                        39.2553971
                    ],
                    [
                        -84.5169775,
                        39.2555331
                    ],
                    [
                        -84.5166256,
                        39.2556394
                    ],
                    [
                        -84.5162909,
                        39.2556262
                    ],
                    [
                        -84.515983,
                        39.2555399
                    ],
                    [
                        -84.5156866,
                        39.2555178
                    ],
                    [
                        -84.5153639,
                        39.2556233
                    ],
                    [
                        -84.5150367,
                        39.2556845
                    ],
                    [
                        -84.5149004,
                        39.2556993
                    ],
                    [
                        -84.5144884,
                        39.2557325
                    ],
                    [
                        -84.5140679,
                        39.2559053
                    ],
                    [
                        -84.5136473,
                        39.2561977
                    ],
                    [
                        -84.5132868,
                        39.2566497
                    ],
                    [
                        -84.5131495,
                        39.2569022
                    ],
                    [
                        -84.5131409,
                        39.2570883
                    ],
                    [
                        -84.5132267,
                        39.2573674
                    ],
                    [
                        -84.5133984,
                        39.2575668
                    ],
                    [
                        -84.5133726,
                        39.2577329
                    ],
                    [
                        -84.5131237,
                        39.2579057
                    ],
                    [
                        -84.5130036,
                        39.2581317
                    ],
                    [
                        -84.5129177,
                        39.2582846
                    ],
                    [
                        -84.5129778,
                        39.2587298
                    ],
                    [
                        -84.5129949,
                        39.2591848
                    ],
                    [
                        -84.5129313,
                        39.2592137
                    ],
                    [
                        -84.5127032,
                        39.2590821
                    ],
                    [
                        -84.5122397,
                        39.2589026
                    ],
                    [
                        -84.5116904,
                        39.2587365
                    ],
                    [
                        -84.5112097,
                        39.25867
                    ],
                    [
                        -84.5109093,
                        39.2587032
                    ],
                    [
                        -84.5105231,
                        39.2589292
                    ],
                    [
                        -84.5100081,
                        39.2591485
                    ],
                    [
                        -84.5097935,
                        39.2591219
                    ],
                    [
                        -84.5091841,
                        39.2588694
                    ],
                    [
                        -84.509049,
                        39.2587835
                    ],
                    [
                        -84.5088494,
                        39.2586567
                    ],
                    [
                        -84.5085919,
                        39.2585039
                    ],
                    [
                        -84.5085404,
                        39.2584308
                    ],
                    [
                        -84.5086777,
                        39.2582181
                    ],
                    [
                        -84.5090039,
                        39.2580652
                    ],
                    [
                        -84.5091927,
                        39.2578792
                    ],
                    [
                        -84.5092889,
                        39.2577296
                    ],
                    [
                        -84.508918,
                        39.2577795
                    ],
                    [
                        -84.5085747,
                        39.2578393
                    ],
                    [
                        -84.5086605,
                        39.2574804
                    ],
                    [
                        -84.5087034,
                        39.257168
                    ],
                    [
                        -84.5085575,
                        39.2570218
                    ],
                    [
                        -84.5082485,
                        39.256982
                    ],
                    [
                        -84.5078537,
                        39.2566829
                    ],
                    [
                        -84.5077851,
                        39.2564702
                    ],
                    [
                        -84.5074589,
                        39.2562908
                    ],
                    [
                        -84.5069439,
                        39.2562642
                    ],
                    [
                        -84.5064413,
                        39.2562608
                    ],
                    [
                        -84.5061371,
                        39.2564835
                    ],
                    [
                        -84.5057251,
                        39.2564901
                    ],
                    [
                        -84.5050385,
                        39.2563439
                    ],
                    [
                        -84.5048497,
                        39.255985
                    ],
                    [
                        -84.504678,
                        39.2557325
                    ],
                    [
                        -84.5045836,
                        39.2554534
                    ],
                    [
                        -84.5046007,
                        39.2551011
                    ],
                    [
                        -84.5047381,
                        39.2545694
                    ],
                    [
                        -84.5044205,
                        39.2549881
                    ],
                    [
                        -84.5042231,
                        39.2554666
                    ],
                    [
                        -84.5039656,
                        39.256231
                    ],
                    [
                        -84.5038283,
                        39.2565898
                    ],
                    [
                        -84.5033654,
                        39.2569748
                    ],
                    [
                        -84.5032189,
                        39.2572877
                    ],
                    [
                        -84.5028912,
                        39.2576633
                    ],
                    [
                        -84.5022747,
                        39.2584374
                    ],
                    [
                        -84.5019274,
                        39.2587241
                    ],
                    [
                        -84.5019098,
                        39.2589111
                    ],
                    [
                        -84.5020172,
                        39.259195
                    ],
                    [
                        -84.5023863,
                        39.2595672
                    ],
                    [
                        -84.5025322,
                        39.2598729
                    ],
                    [
                        -84.5024807,
                        39.2599726
                    ],
                    [
                        -84.5022576,
                        39.2600058
                    ],
                    [
                        -84.5018198,
                        39.2602716
                    ],
                    [
                        -84.5013907,
                        39.2602584
                    ],
                    [
                        -84.5008929,
                        39.2603248
                    ],
                    [
                        -84.5001819,
                        39.2602846
                    ],
                    [
                        -84.4998371,
                        39.2601321
                    ],
                    [
                        -84.4989063,
                        39.2601384
                    ],
                    [
                        -84.4984124,
                        39.2601985
                    ],
                    [
                        -84.4983004,
                        39.26022
                    ],
                    [
                        -84.497966,
                        39.2601853
                    ],
                    [
                        -84.4974596,
                        39.2597932
                    ],
                    [
                        -84.4973824,
                        39.2595007
                    ],
                    [
                        -84.4972708,
                        39.2591552
                    ],
                    [
                        -84.4970775,
                        39.2589162
                    ],
                    [
                        -84.4970047,
                        39.258238
                    ],
                    [
                        -84.4969446,
                        39.2575136
                    ],
                    [
                        -84.4969361,
                        39.257168
                    ],
                    [
                        -84.4966872,
                        39.2566962
                    ],
                    [
                        -84.4966786,
                        39.2563572
                    ],
                    [
                        -84.4968846,
                        39.2560116
                    ],
                    [
                        -84.4968331,
                        39.2558255
                    ],
                    [
                        -84.4967262,
                        39.2557372
                    ],
                    [
                        -84.4969275,
                        39.255573
                    ],
                    [
                        -84.4972365,
                        39.2555597
                    ],
                    [
                        -84.4974339,
                        39.2556195
                    ],
                    [
                        -84.4975495,
                        39.2556233
                    ],
                    [
                        -84.4976373,
                        39.255494
                    ],
                    [
                        -84.4975798,
                        39.2554201
                    ],
                    [
                        -84.4973738,
                        39.2553537
                    ],
                    [
                        -84.4970648,
                        39.2552274
                    ],
                    [
                        -84.4968588,
                        39.2551078
                    ],
                    [
                        -84.496803,
                        39.2548599
                    ],
                    [
                        -84.4967816,
                        39.254709
                    ],
                    [
                        -84.4966823,
                        39.2545641
                    ],
                    [
                        -84.4966957,
                        39.2538649
                    ],
                    [
                        -84.4967644,
                        39.253506
                    ],
                    [
                        -84.4969699,
                        39.2530952
                    ],
                    [
                        -84.4969532,
                        39.2529411
                    ],
                    [
                        -84.4970991,
                        39.2523429
                    ],
                    [
                        -84.4970648,
                        39.2521036
                    ],
                    [
                        -84.4971148,
                        39.2519119
                    ],
                    [
                        -84.4970219,
                        39.2517048
                    ],
                    [
                        -84.4969897,
                        39.2515549
                    ],
                    [
                        -84.4966786,
                        39.251419
                    ],
                    [
                        -84.4964297,
                        39.2516849
                    ],
                    [
                        -84.4962542,
                        39.2517878
                    ],
                    [
                        -84.4962805,
                        39.2519136
                    ],
                    [
                        -84.4963442,
                        39.252116
                    ],
                    [
                        -84.4961893,
                        39.2530341
                    ],
                    [
                        -84.4961795,
                        39.2531836
                    ],
                    [
                        -84.4962388,
                        39.2533638
                    ],
                    [
                        -84.4960005,
                        39.2544431
                    ],
                    [
                        -84.4960324,
                        39.2546865
                    ],
                    [
                        -84.4959183,
                        39.2547987
                    ],
                    [
                        -84.4955231,
                        39.25478
                    ],
                    [
                        -84.4954221,
                        39.2548684
                    ],
                    [
                        -84.4954967,
                        39.2549806
                    ],
                    [
                        -84.4959576,
                        39.2550812
                    ],
                    [
                        -84.4960606,
                        39.2552074
                    ],
                    [
                        -84.4960177,
                        39.2554268
                    ],
                    [
                        -84.4955885,
                        39.2557192
                    ],
                    [
                        -84.4954177,
                        39.2558681
                    ],
                    [
                        -84.4949276,
                        39.2560382
                    ],
                    [
                        -84.4946615,
                        39.2563572
                    ],
                    [
                        -84.4944899,
                        39.2567161
                    ],
                    [
                        -84.4944556,
                        39.2571348
                    ],
                    [
                        -84.4947302,
                        39.2575136
                    ],
                    [
                        -84.4950135,
                        39.2581317
                    ],
                    [
                        -84.4949942,
                        39.2582718
                    ],
                    [
                        -84.4949705,
                        39.2584441
                    ],
                    [
                        -84.4949448,
                        39.2587764
                    ],
                    [
                        -84.4948847,
                        39.2591153
                    ],
                    [
                        -84.4948032,
                        39.2592776
                    ],
                    [
                        -84.4947645,
                        39.2593545
                    ],
                    [
                        -84.4968674,
                        39.2608631
                    ],
                    [
                        -84.4977427,
                        39.2608286
                    ],
                    [
                        -84.4982664,
                        39.260903
                    ],
                    [
                        -84.4989531,
                        39.2609296
                    ],
                    [
                        -84.4997427,
                        39.2608764
                    ],
                    [
                        -84.5000107,
                        39.2608014
                    ],
                    [
                        -84.5002346,
                        39.2608184
                    ],
                    [
                        -84.5005667,
                        39.2609429
                    ],
                    [
                        -84.5010733,
                        39.2610439
                    ],
                    [
                        -84.5014575,
                        39.2610439
                    ],
                    [
                        -84.5022281,
                        39.261343
                    ],
                    [
                        -84.5022404,
                        39.2616074
                    ],
                    [
                        -84.5023116,
                        39.2616235
                    ],
                    [
                        -84.5024206,
                        39.2614014
                    ],
                    [
                        -84.5027296,
                        39.2614014
                    ],
                    [
                        -84.5030646,
                        39.2613804
                    ],
                    [
                        -84.5032447,
                        39.261292
                    ],
                    [
                        -84.5033918,
                        39.261185
                    ],
                    [
                        -84.5034906,
                        39.2610711
                    ],
                    [
                        -84.5035608,
                        39.2609606
                    ],
                    [
                        -84.5037299,
                        39.2607481
                    ],
                    [
                        -84.503957,
                        39.2604976
                    ],
                    [
                        -84.5040943,
                        39.2602783
                    ],
                    [
                        -84.5041887,
                        39.2601582
                    ],
                    [
                        -84.5041734,
                        39.2599763
                    ],
                    [
                        -84.5041448,
                        39.2598029
                    ],
                    [
                        -84.5040812,
                        39.2596856
                    ],
                    [
                        -84.5039218,
                        39.2595619
                    ],
                    [
                        -84.5039409,
                        39.2594617
                    ],
                    [
                        -84.5040778,
                        39.2594581
                    ],
                    [
                        -84.5043808,
                        39.2596
                    ],
                    [
                        -84.5044892,
                        39.2598596
                    ],
                    [
                        -84.5045115,
                        39.2603078
                    ],
                    [
                        -84.5044456,
                        39.2606036
                    ],
                    [
                        -84.504439,
                        39.2608246
                    ],
                    [
                        -84.5044917,
                        39.2609232
                    ],
                    [
                        -84.504753,
                        39.2611204
                    ],
                    [
                        -84.5047969,
                        39.2614025
                    ],
                    [
                        -84.5049355,
                        39.2617802
                    ],
                    [
                        -84.5048754,
                        39.2619796
                    ],
                    [
                        -84.5048153,
                        39.2623849
                    ],
                    [
                        -84.5045883,
                        39.2626401
                    ],
                    [
                        -84.5049012,
                        39.2625843
                    ],
                    [
                        -84.5049183,
                        39.2627571
                    ],
                    [
                        -84.5050213,
                        39.2629631
                    ],
                    [
                        -84.5049183,
                        39.2631558
                    ],
                    [
                        -84.5047903,
                        39.2634203
                    ],
                    [
                        -84.5049612,
                        39.2633751
                    ],
                    [
                        -84.5053646,
                        39.2631425
                    ],
                    [
                        -84.5055535,
                        39.2629365
                    ],
                    [
                        -84.5057251,
                        39.2628036
                    ],
                    [
                        -84.5059078,
                        39.2625058
                    ],
                    [
                        -84.5058195,
                        39.262365
                    ],
                    [
                        -84.5058453,
                        39.2619463
                    ],
                    [
                        -84.5058882,
                        39.2615476
                    ],
                    [
                        -84.5059429,
                        39.2613668
                    ],
                    [
                        -84.5056663,
                        39.260896
                    ],
                    [
                        -84.5055706,
                        39.2606903
                    ],
                    [
                        -84.5053904,
                        39.260378
                    ],
                    [
                        -84.505459,
                        39.259853
                    ],
                    [
                        -84.5055277,
                        39.2597068
                    ],
                    [
                        -84.5053389,
                        39.2594875
                    ],
                    [
                        -84.5053904,
                        39.259328
                    ],
                    [
                        -84.5053561,
                        39.2592216
                    ],
                    [
                        -84.5051844,
                        39.2589824
                    ],
                    [
                        -84.504884,
                        39.2586434
                    ],
                    [
                        -84.504641,
                        39.2585364
                    ],
                    [
                        -84.5044806,
                        39.2586102
                    ],
                    [
                        -84.5043347,
                        39.2586368
                    ],
                    [
                        -84.5040428,
                        39.2585105
                    ],
                    [
                        -84.503854,
                        39.2583776
                    ],
                    [
                        -84.5037424,
                        39.258145
                    ],
                    [
                        -84.5038682,
                        39.2579448
                    ],
                    [
                        -84.5039828,
                        39.2578925
                    ],
                    [
                        -84.5043175,
                        39.2576466
                    ],
                    [
                        -84.5047037,
                        39.2572744
                    ],
                    [
                        -84.5048497,
                        39.257075
                    ],
                    [
                        -84.50509,
                        39.2570019
                    ],
                    [
                        -84.5054248,
                        39.2569673
                    ],
                    [
                        -84.5056663,
                        39.25702
                    ],
                    [
                        -84.5059054,
                        39.2571082
                    ],
                    [
                        -84.5062058,
                        39.2572279
                    ],
                    [
                        -84.5064787,
                        39.257462
                    ],
                    [
                        -84.5065577,
                        39.2578326
                    ],
                    [
                        -84.5066741,
                        39.2579516
                    ],
                    [
                        -84.5067208,
                        39.2580586
                    ],
                    [
                        -84.506876,
                        39.2581913
                    ],
                    [
                        -84.5069439,
                        39.258371
                    ],
                    [
                        -84.5073044,
                        39.2586368
                    ],
                    [
                        -84.5076821,
                        39.2588295
                    ],
                    [
                        -84.5078113,
                        39.2589002
                    ],
                    [
                        -84.5078377,
                        39.2589954
                    ],
                    [
                        -84.5077851,
                        39.2591618
                    ],
                    [
                        -84.5077421,
                        39.2592615
                    ],
                    [
                        -84.5077164,
                        39.2595473
                    ],
                    [
                        -84.507622,
                        39.2597001
                    ],
                    [
                        -84.5075303,
                        39.2599355
                    ],
                    [
                        -84.5075764,
                        39.2599899
                    ],
                    [
                        -84.5076313,
                        39.2599916
                    ],
                    [
                        -84.5078904,
                        39.2598318
                    ],
                    [
                        -84.5079224,
                        39.2597466
                    ],
                    [
                        -84.5080111,
                        39.2596516
                    ],
                    [
                        -84.5080858,
                        39.2596278
                    ],
                    [
                        -84.5081628,
                        39.2596263
                    ],
                    [
                        -84.5081909,
                        39.2595683
                    ],
                    [
                        -84.5081399,
                        39.259485
                    ],
                    [
                        -84.5080775,
                        39.2594098
                    ],
                    [
                        -84.5081098,
                        39.2593206
                    ],
                    [
                        -84.508197,
                        39.2592818
                    ],
                    [
                        -84.5083238,
                        39.259289
                    ],
                    [
                        -84.5084261,
                        39.2593296
                    ],
                    [
                        -84.5084589,
                        39.2594237
                    ],
                    [
                        -84.5085246,
                        39.2595115
                    ],
                    [
                        -84.5086228,
                        39.2596086
                    ],
                    [
                        -84.5087445,
                        39.2597288
                    ],
                    [
                        -84.5089009,
                        39.2599327
                    ],
                    [
                        -84.5090694,
                        39.2600307
                    ],
                    [
                        -84.5093472,
                        39.2601454
                    ],
                    [
                        -84.5097346,
                        39.2601174
                    ],
                    [
                        -84.5101797,
                        39.2599659
                    ],
                    [
                        -84.5104218,
                        39.25991
                    ],
                    [
                        -84.5106346,
                        39.2599061
                    ],
                    [
                        -84.5111331,
                        39.2600103
                    ],
                    [
                        -84.5115273,
                        39.2601055
                    ],
                    [
                        -84.5123684,
                        39.2602982
                    ],
                    [
                        -84.5127375,
                        39.2603448
                    ],
                    [
                        -84.5129115,
                        39.2602517
                    ],
                    [
                        -84.5130207,
                        39.2602185
                    ],
                    [
                        -84.5132096,
                        39.2602517
                    ],
                    [
                        -84.5134499,
                        39.2603713
                    ],
                    [
                        -84.5136816,
                        39.2603846
                    ],
                    [
                        -84.514025,
                        39.2603713
                    ],
                    [
                        -84.5144284,
                        39.2603514
                    ],
                    [
                        -84.5150292,
                        39.2602052
                    ],
                    [
                        -84.5153296,
                        39.2600723
                    ],
                    [
                        -84.5155098,
                        39.2599394
                    ],
                    [
                        -84.5156643,
                        39.2598397
                    ],
                    [
                        -84.5157416,
                        39.2597666
                    ],
                    [
                        -84.5157673,
                        39.2596735
                    ],
                    [
                        -84.515733,
                        39.2595539
                    ],
                    [
                        -84.5156121,
                        39.2594926
                    ],
                    [
                        -84.515424,
                        39.2594143
                    ],
                    [
                        -84.5153982,
                        39.2593612
                    ],
                    [
                        -84.515105,
                        39.2592216
                    ],
                    [
                        -84.5150328,
                        39.2591847
                    ],
                    [
                        -84.5150006,
                        39.2591961
                    ],
                    [
                        -84.5149309,
                        39.259221
                    ],
                    [
                        -84.5148839,
                        39.2592272
                    ],
                    [
                        -84.5148249,
                        39.2592127
                    ],
                    [
                        -84.5147337,
                        39.2591712
                    ],
                    [
                        -84.5146828,
                        39.2591358
                    ],
                    [
                        -84.5146264,
                        39.259086
                    ],
                    [
                        -84.5145661,
                        39.2590092
                    ],
                    [
                        -84.5145165,
                        39.2589126
                    ],
                    [
                        -84.514491,
                        39.2588274
                    ],
                    [
                        -84.5144856,
                        39.2587423
                    ],
                    [
                        -84.5145326,
                        39.2586478
                    ],
                    [
                        -84.5145772,
                        39.2585806
                    ],
                    [
                        -84.5146167,
                        39.2585167
                    ],
                    [
                        -84.5146268,
                        39.2584964
                    ],
                    [
                        -84.5146174,
                        39.2584783
                    ],
                    [
                        -84.5146134,
                        39.2584492
                    ],
                    [
                        -84.5146174,
                        39.2584232
                    ],
                    [
                        -84.5146261,
                        39.258403
                    ],
                    [
                        -84.5146462,
                        39.2583838
                    ],
                    [
                        -84.5146804,
                        39.2583687
                    ],
                    [
                        -84.51472,
                        39.2583563
                    ],
                    [
                        -84.5148829,
                        39.2583049
                    ],
                    [
                        -84.5150278,
                        39.2582612
                    ],
                    [
                        -84.5151096,
                        39.258227
                    ],
                    [
                        -84.5152182,
                        39.2581678
                    ],
                    [
                        -84.5152893,
                        39.2581148
                    ],
                    [
                        -84.5153711,
                        39.2580338
                    ],
                    [
                        -84.5154274,
                        39.2579559
                    ],
                    [
                        -84.5154797,
                        39.2578822
                    ],
                    [
                        -84.515536,
                        39.2578054
                    ],
                    [
                        -84.5155991,
                        39.2577316
                    ],
                    [
                        -84.5156487,
                        39.2576735
                    ],
                    [
                        -84.5157614,
                        39.2575572
                    ],
                    [
                        -84.5158686,
                        39.2574731
                    ],
                    [
                        -84.5159357,
                        39.2574201
                    ],
                    [
                        -84.5160363,
                        39.2573692
                    ],
                    [
                        -84.516106,
                        39.2573464
                    ],
                    [
                        -84.5161784,
                        39.257336
                    ],
                    [
                        -84.5162522,
                        39.2573319
                    ],
                    [
                        -84.5163474,
                        39.2573402
                    ],
                    [
                        -84.5164252,
                        39.2573589
                    ],
                    [
                        -84.5164909,
                        39.2573983
                    ],
                    [
                        -84.516494,
                        39.2574091
                    ],
                    [
                        -84.5165185,
                        39.2574254
                    ],
                    [
                        -84.51657,
                        39.2574487
                    ],
                    [
                        -84.5166398,
                        39.2575125
                    ],
                    [
                        -84.5167015,
                        39.2575738
                    ],
                    [
                        -84.5168007,
                        39.2576527
                    ],
                    [
                        -84.5168865,
                        39.2577254
                    ],
                    [
                        -84.5170086,
                        39.2577898
                    ],
                    [
                        -84.5171574,
                        39.2578614
                    ],
                    [
                        -84.5172661,
                        39.2579154
                    ],
                    [
                        -84.5173224,
                        39.2579715
                    ],
                    [
                        -84.5173814,
                        39.2580328
                    ],
                    [
                        -84.5174592,
                        39.2581439
                    ],
                    [
                        -84.5175061,
                        39.2582207
                    ],
                    [
                        -84.5175423,
                        39.2582633
                    ],
                    [
                        -84.517596,
                        39.2582965
                    ],
                    [
                        -84.5176604,
                        39.2583121
                    ],
                    [
                        -84.5177247,
                        39.258308
                    ],
                    [
                        -84.5177837,
                        39.2582924
                    ],
                    [
                        -84.5178267,
                        39.2582664
                    ],
                    [
                        -84.5178575,
                        39.2582311
                    ],
                    [
                        -84.517883,
                        39.2581896
                    ],
                    [
                        -84.5178883,
                        39.258146
                    ],
                    [
                        -84.5178709,
                        39.2580743
                    ],
                    [
                        -84.5178495,
                        39.2579757
                    ],
                    [
                        -84.5176384,
                        39.2575402
                    ],
                    [
                        -84.5175011,
                        39.2572943
                    ],
                    [
                        -84.5173123,
                        39.2571614
                    ],
                    [
                        -84.5168659,
                        39.2569952
                    ],
                    [
                        -84.516758,
                        39.2568932
                    ],
                    [
                        -84.5165275,
                        39.2567776
                    ],
                    [
                        -84.5163672,
                        39.2566773
                    ],
                    [
                        -84.5163277,
                        39.2565481
                    ],
                    [
                        -84.5163497,
                        39.256424
                    ],
                    [
                        -84.5165473,
                        39.2563203
                    ],
                    [
                        -84.5169518,
                        39.2560847
                    ],
                    [
                        -84.5172024,
                        39.2559237
                    ],
                    [
                        -84.5173552,
                        39.2558255
                    ],
                    [
                        -84.5176899,
                        39.2555796
                    ],
                    [
                        -84.51806,
                        39.2552237
                    ],
                    [
                        -84.5181877,
                        39.2551343
                    ],
                    [
                        -84.5184281,
                        39.2550679
                    ],
                    [
                        -84.518677,
                        39.2550745
                    ],
                    [
                        -84.518986,
                        39.2552008
                    ],
                    [
                        -84.5193293,
                        39.2554068
                    ],
                    [
                        -84.5197499,
                        39.2556394
                    ],
                    [
                        -84.5201533,
                        39.255799
                    ],
                    [
                        -84.5208227,
                        39.2559718
                    ],
                    [
                        -84.5214665,
                        39.2560648
                    ],
                    [
                        -84.5220075,
                        39.2561248
                    ],
                    [
                        -84.5222731,
                        39.256152
                    ],
                    [
                        -84.5225212,
                        39.2560891
                    ],
                    [
                        -84.5228989,
                        39.2561333
                    ],
                    [
                        -84.5233376,
                        39.2563971
                    ],
                    [
                        -84.5235531,
                        39.256492
                    ],
                    [
                        -84.5238783,
                        39.2565566
                    ],
                    [
                        -84.5241444,
                        39.2566629
                    ],
                    [
                        -84.5243676,
                        39.2568623
                    ],
                    [
                        -84.5245306,
                        39.2571481
                    ],
                    [
                        -84.5248139,
                        39.2574738
                    ],
                    [
                        -84.5248825,
                        39.257713
                    ],
                    [
                        -84.5250885,
                        39.2578127
                    ],
                    [
                        -84.5254147,
                        39.2578526
                    ],
                    [
                        -84.5258009,
                        39.2577795
                    ],
                    [
                        -84.5261285,
                        39.2576191
                    ],
                    [
                        -84.5262975,
                        39.2575137
                    ],
                    [
                        -84.526685,
                        39.2572146
                    ],
                    [
                        -84.5269768,
                        39.2570218
                    ],
                    [
                        -84.5273201,
                        39.2568823
                    ],
                    [
                        -84.5275605,
                        39.2568623
                    ],
                    [
                        -84.5278694,
                        39.256962
                    ],
                    [
                        -84.5280411,
                        39.2570949
                    ],
                    [
                        -84.5282814,
                        39.257301
                    ],
                    [
                        -84.5285389,
                        39.2576
                    ],
                    [
                        -84.5286763,
                        39.2576864
                    ],
                    [
                        -84.5289166,
                        39.2576864
                    ],
                    [
                        -84.5291054,
                        39.2577728
                    ],
                    [
                        -84.5291655,
                        39.2578393
                    ],
                    [
                        -84.5295346,
                        39.2577662
                    ],
                    [
                        -84.5296944,
                        39.2575942
                    ],
                    [
                        -84.5296376,
                        39.2573608
                    ],
                    [
                        -84.5302648,
                        39.257155
                    ],
                    [
                        -84.530447,
                        39.2570649
                    ],
                    [
                        -84.530307,
                        39.2570218
                    ],
                    [
                        -84.5295431,
                        39.2571547
                    ],
                    [
                        -84.5292942,
                        39.2571614
                    ],
                    [
                        -84.5288222,
                        39.2568424
                    ],
                    [
                        -84.5286248,
                        39.2565034
                    ],
                    [
                        -84.5285389,
                        39.2562442
                    ],
                    [
                        -84.528702,
                        39.2560781
                    ],
                    [
                        -84.5293028,
                        39.2560316
                    ],
                    [
                        -84.5294831,
                        39.255892
                    ],
                    [
                        -84.5301869,
                        39.255892
                    ],
                    [
                        -84.5313033,
                        39.2558188
                    ],
                    [
                        -84.5302899,
                        39.255686
                    ]
                ],
                [
                    [
                        -84.4962494,
                        39.2590754
                    ],
                    [
                        -84.4962752,
                        39.2591552
                    ],
                    [
                        -84.4961893,
                        39.2592482
                    ],
                    [
                        -84.4959576,
                        39.2592482
                    ],
                    [
                        -84.4957859,
                        39.2591552
                    ],
                    [
                        -84.4958031,
                        39.2590621
                    ],
                    [
                        -84.4959147,
                        39.259009
                    ],
                    [
                        -84.4960863,
                        39.2590355
                    ],
                    [
                        -84.4962494,
                        39.2590754
                    ]
                ],
                [
                    [
                        -84.5056221,
                        39.2619264
                    ],
                    [
                        -84.5055449,
                        39.2620593
                    ],
                    [
                        -84.5054505,
                        39.2622587
                    ],
                    [
                        -84.5053046,
                        39.2623849
                    ],
                    [
                        -84.5051329,
                        39.2623849
                    ],
                    [
                        -84.5052874,
                        39.2622055
                    ],
                    [
                        -84.5053131,
                        39.2619862
                    ],
                    [
                        -84.5053818,
                        39.2618533
                    ],
                    [
                        -84.5055964,
                        39.2618799
                    ],
                    [
                        -84.5056221,
                        39.2619264
                    ]
                ]
            ]
        }
    }
]